NOM_DISPOSITIF,ADRESSE,CODE_POSTAL,VILLE,COM_CODE,COM_NOM,EPCI_CORRE,ADRESSE_COMPLETE,TYPE_STRUCTURE,HORAIRES,INFOS,N_TEL,MAIL,WEBSITE,SERVICES,ACCES,latitude,longitude,BAN_adress,BAN_adress_full,BAN_city,BAN_postcode
3615 Senor,8 avenue du Chardonnet,25000,BESANCON,25056,Besançon,CA du Grand Besancon,8 avenue du Chardonnet 25000 BESANCON,espnum,,,06 64 81 96 56,contact@3615senor.org,https://3615senor.org/,tierslieux_cowork-,,47.2395,6.0235,8 Avenue de Chardonnet,8 Avenue de Chardonnet 25000 Besançon,Besançon,25000
AC agir ensemble contre le chômage,2 rue Victor Hugo,25000,BESANCON,25056,Besançon,CA du Grand Besancon,2 rue Victor Hugo 25000 BESANCON,association,,,09.53.81.96.42,ac.besancon@free.fr,https://www.ac-chomage.org/spip.php?rubrique54,accomp_demarches-ateliers_formations-,,47.23492,6.029683,2 Rue Victor Hugo,2 Rue Victor Hugo 25000 Besançon,Besançon,25000
DigiFab,4 Avenue du Parc,25000,BESANCON,25056,Besançon,CA du Grand Besancon,4 Avenue du Parc 25000 BESANCON,espnum,,,,azouz@digifab.fr,https://digifab.fr/,accomp_demarches-ateliers_formations-,,47.217979,5.972171,4 Avenue du parc,4 Avenue du parc 25000 Besançon,Besançon,25000
EPN Centre ville,27 rue de la République,25000,BESANCON,25056,Besançon,CA du Grand Besancon,27 rue de la République 25000 BESANCON,espnum,,,03 81 87 84 27,epn@besancon.fr,https://epn.besancon.fr/,accomp_demarches-ateliers_formations-,acces_libre-,47.240218,6.027249,27 Rue de la République,27 Rue de la République 25000 Besançon,Besançon,25000
EPN Montrapon,1 place de Coubertin,25000,BESANCON,25056,Besançon,CA du Grand Besancon,1 place de Coubertin 25000 BESANCON,espnum,,,03 81 87 84 27.,epn@besancon.fr,https://epn.besancon.fr/,accomp_demarches-ateliers_formations-,acces_libre-,47.247253,6.000357,1 Place Pierre de Coubertin,1 Place Pierre de Coubertin 25000 Besançon,Besançon,25000
EPN Planoise,13 avenue Ile de France,25000,BESANCON,25056,Besançon,CA du Grand Besancon,13 avenue Ile de France 25000 BESANCON,espnum,,,03 81 87 84 27.,epn@besancon.fr,https://epn.besancon.fr/,accomp_demarches-ateliers_formations-,acces_libre-,47.221329,5.967441,13 Avenue de l'île de France,13 Avenue de l'île de France 25000 Besançon,Besançon,25000
EPN Battant,1  rue de l'Ecole,25000,BESANCON,25056,Besançon,CA du Grand Besancon,1  rue de l'Ecole 25000 BESANCON,espnum,,,03 81 87 84 27.,epn@besancon.fr,https://epn.besancon.fr/,,,47.240319,6.01915,1 Rue de l'école,1 Rue de l'école 25000 Besançon,Besançon,25000
EPN Clairs-soleils,67E Rue de Chalezeule,25000,BESANCON,25056,Besançon,CA du Grand Besancon,67E Rue de Chalezeule 25000 BESANCON,espnum,,,03 81 87 84 27.,epn@besancon.fr,https://epn.besancon.fr/,,,47.24935,6.053506,67e Rue de Chalezeule,67e Rue de Chalezeule 25000 Besançon,Besançon,25000
EPN Grette,31 bis rue Brulard,25000,BESANCON,25056,Besançon,CA du Grand Besancon,31 bis rue Brulard 25000 BESANCON,espnum,,,03 81 87 84 27.,epn@besancon.fr,https://epn.besancon.fr/,,,47.227771,6.005491,31b Rue Général Brulard,31b Rue Général Brulard 25000 Besançon,Besançon,25000
Espace IO,19 rue de la République,25000,BESANCON,25056,Besançon,CA du Grand Besancon,19 rue de la République 25000 BESANCON,espnum,,,07 64 15 07 64,info@espaces.io,https://espaces.io/,tierslieux_cowork-,,47.239663,6.026411,19 Rue de la République,19 Rue de la République 25000 Besançon,Besançon,25000
FabLab Planoise,10  rue Picasso,25000,BESANCON,25056,Besançon,CA du Grand Besancon,10  rue Picasso 25000 BESANCON,espnum,,,03 81 87 85 80,fablab@grandbesancon.fr,https://fablab.grandbesancon.fr/,ateliers_formations-tierslieux_cowork-,,47.219005,5.973584,Rue Pablo Picasso,Rue Pablo Picasso 25000 Besançon,Besançon,25000
Frenchmakers,17  rue Xavier Marmier,25000,BESANCON,25056,Besançon,CA du Grand Besancon,17  rue Xavier Marmier 25000 BESANCON,espnum,,,03 81 63 18 32,contact@frenchmakers.com,https://www.frenchmakers.com/,ateliers_formations-tierslieux_cowork-,,47.242025,6.007497,17 Rue Xavier Marmier,17 Rue Xavier Marmier 25000 Besançon,Besançon,25000
iBureau Bisontin,4 rue Eugène Savoye,25000,BESANCON,25056,Besançon,CA du Grand Besancon,4 rue Eugène Savoye 25000 BESANCON,espnum,,,06 87 47 25 73,contact@ibureaubisontin.com,http://www.ibureaubisontin.com/,tierslieux_cowork-,,47.250675,6.022409,Rue Eugène Savoye,Rue Eugène Savoye 25000 Besançon,Besançon,25000
L'atome,12 rue de France-Comté,25000,BESANCON,25056,Besançon,CA du Grand Besancon,12 rue de France-Comté 25000 BESANCON,espnum,,,03.81.26.18.89,contact@besancon-coworking.fr,https://besancon-coworking.fr/,tierslieux_cowork-,,47.226102,5.996201,12 Rue Anatole France,12 Rue Anatole France 25000 Besançon,Besançon,25000
La pépinière APEFC,15  rue Xavier Marmier,25000,BESANCON,25056,Besançon,CA du Grand Besancon,15  rue Xavier Marmier  25000 BESANCON,espnum,,Espace de co-working,,,https://www.coworking-france.com/espace-coworking/pepiniere-apefc/,,acces_payant-,47.241893,6.00714,15 Rue Xavier Marmier,15 Rue Xavier Marmier 25000 Besançon,Besançon,25000
Mission Locale du Bassin d'Emploi de Besancon,10C rue Midol,25000,BESANCON,25056,Besançon,CA du Grand Besancon,10C rue Midol 25000 BESANCON,collectivite,,,03.81.85.85.85,contact.besancon@milobfc.fr,https://www.missionlocale-besancon.fr/,accomp_demarches-ateliers_formations-,acces_libre-,47.245703,6.017937,10c Rue Midol,10c Rue Midol 25000 Besançon,Besançon,25000
France services Planoise,7-9 rue Picasso,25000,BESANCON,25056,Besançon,CA du Grand Besancon,7-9 rue Picasso 25000 BESANCON,msap_mfs,,,03 81 41 22 21,msap@besancon.fr,https://www.grandbesancon.fr/demarche-administrative/la-maison-de-services-au-public-msap/,accomp_demarches-ateliers_formations-,acces_libre-,47.21937,5.973427,9 Rue Pablo Picasso,9 Rue Pablo Picasso 25000 Besançon,Besançon,25000
Onlineformapro,10 rue Pablo Picasso,25000,BESANCON,25056,Besançon,CA du Grand Besancon,10 rue Pablo Picasso 25000 BESANCON,entreprise,,,03 84 76 90 83,,https://tertiaire.onlineformapro.com/category/besancon_picasso/,ateliers_formations-,,47.219005,5.973584,Rue Pablo Picasso,Rue Pablo Picasso 25000 Besançon,Besançon,25000
Onlineformapro,2b chemin de Palente,25000,BESANCON,25056,Besançon,CA du Grand Besancon,2b chemin de Palente 25000 BESANCON,entreprise,,,,,https://www.ofpformation.com/,ateliers_formations-,,47.267872,6.048804,Chemin de Palente,Chemin de Palente 25000 Besançon,Besançon,25000
France services Baume les Dames,3 Place de la République,25110,BAUME LES DAMES,25047,Baume-les-Dames,CC du Doubs Baumois,3 Place de la République 25110 BAUME LES DAMES,msap_mfs,,,03 81 84 72 45,franceservices@baumelesdames.org,https://lannuaire.service-public.fr/bourgogne-franche-comte/doubs/msap-25047-01,accomp_demarches-ateliers_formations-,adapt_handicap-acces_libre-,47.352575,6.36156,3 Place de la Republique,3 Place de la Republique 25110 Baume-les-Dames,Baume-les-Dames,25110
MJC de Villers-le-Lac,4 Rue Parrenin,25130,VILLERS LE LAC,25321,Villers-le-Lac,CC du Val de Morteau,4 Rue Parrenin 25130 VILLERS LE LAC,association,,Coût : carte d’adhésion MJC + 50€ pour 12h cours informatiques,03 81 68 13 91,mjc.villers@gmail.com,http://www.mjcvll.com/,ateliers_formations-,adapt_handicap-,47.060345,6.669811,4 Rue Hippolyte Parrenin,4 Rue Hippolyte Parrenin 25130 Villers-le-Lac,Villers-le-Lac,25130
France services Saint-Hippolyte (Portage La Poste),Esplanade des Fêtes,25190,SAINT HIPPOLYTE,25519,Saint-Hippolyte,CC du Pays de Maîche,Esplanade des Fêtes 25190 SAINT HIPPOLYTE,msap_mfs,,Imprimante  photocopieuse  scanner  ordinateur avec accès internet Accès aux sites des opérateurs partenaires (CAF  CPAM  MSA  DDFIP  Pôle Emploi…),03 81 31 54 26,saint-hippolyte@france-services.gouv.fr,https://lannuaire.service-public.fr/bourgogne-franche-comte/doubs/msap-25519-01,accomp_demarches-,adapt_handicap-acces_libre-,47.320281,6.814496,Rue des Forges,Rue des Forges 25190 Saint-Hippolyte,Saint-Hippolyte,25190
Bureau Information Jeunesse de Montbéliard,Mairie,25200,MONTBELIARD,25388,Montbéliard,CA Pays de Montbéliard Agglomération,Mairie 25200 MONTBELIARD,collectivite,,,03 81 99 24 15,bij@montbeliard.com,https://www.montbeliard.fr/ma-ville-au-quotidien/jeunes-11-26-ans/bij-bureau-information-jeunesse.html,accomp_demarches-,,47.509655,6.794778,Montbéliard,Montbéliard,Montbéliard,25200
Association La Lizaine de Bethoncourt,Place Cuvier,25200,BETHONCOURT,25057,Bethoncourt,CA Pays de Montbéliard Agglomération,Place Cuvier 25200 BETHONCOURT,association,,Cours d'accès au numérique,03 91 92 90 81,,https://www.bethoncourt.fr/programme-vacances-association-socioculturelle-la-lizaine/,ateliers_formations-,,47.534579,6.804374,Place Cuvier,Place Cuvier 25200 Bethoncourt,Bethoncourt,25200
L'Atelier du pavillon des sciences,1 impasse de la presqu'ile,25200,MONTBELIARD,25388,Montbéliard,CA Pays de Montbéliard Agglomération,1 impasse de la presqu'ile 25200 MONTBELIARD,espnum,,Lieu de création numérique,03 81 97 18 21,contact@pavillon-sciences.com,https://www.pavillon-sciences.com/web/,ateliers_formations-tierslieux_cowork-,adapt_handicap-acces_payant-,47.505168,6.795357,1 Impasse de la Presqu Ile,1 Impasse de la Presqu Ile 25200 Montbéliard,Montbéliard,25200
France services Montbéliard,12 rue Maurice Ravel,25200,MONTBELIARD,25388,Montbéliard,CA Pays de Montbéliard Agglomération,12 rue Maurice Ravel 25200 MONTBELIARD,msap_mfs,,Accompagnement des démarches CAF  pole emploi MSA pour agriculteurs  demande de logement et de bourses,03 81 36 52 03,france.services.montbeliard@outlook.fr,https://lannuaire.service-public.fr/bourgogne-franche-comte/doubs/msap-25388-01,accomp_demarches-,adapt_handicap-acces_libre-,47.499355,6.798311,12 Rue Maurice Ravel,12 Rue Maurice Ravel 25200 Montbéliard,Montbéliard,25200
EPN Grand-Charmont,5  rue de Sochaux,25200,GRAND-CHARMONT,25284,Grand-Charmont,CA Pays de Montbéliard Agglomération,5  rue de Sochaux 25200 GRAND-CHARMONT,collectivite,,- connexion internet  photocopie  scan fax - Ateliers Collectifs Public Adultes etSeniors sur le thème du multimédia et de la bureautique. - Ateliers ludo-éducatifs,03 81 32 19 17,epn-pij@grand-charmont.com,http://www.grand-charmont.com/,ateliers_formations-,adapt_handicap-acces_libre-acces_payant-,47.526409,6.826627,5 Rue de Sochaux,5 Rue de Sochaux 25200 Grand-Charmont,Grand-Charmont,25200
France Services Mouthe,1 Grande Rue,25240,MOUTHE,25413,Mouthe,CC des Lacs et Montagnes du Haut-Doubs,1 Grande Rue 25240 MOUTHE,msap_mfs,,Imprimante  photocopieuse  scanner  ordinateur avec accès internet Accès aux sites des opérateurs partenaires (CAF  CPAM  MSA  DDFIP  Pôle Emploi…),09 82 81 55 46,maisonfranceservices@mouthe.fr,https://lannuaire.service-public.fr/bourgogne-franche-comte/doubs/msap-25413-01,accomp_demarches-,adapt_handicap-acces_libre-,46.710386,6.192658,1 Grande Rue,1 Grande Rue 25240 Mouthe,Mouthe,25240
France Services L'Isle sur le Doubs,10 rue des Prés verts,25250,L'ISLE SUR LE DOUBS,25315,L'Isle-sur-le-Doubs,CC des Deux Vallées Vertes,10 rue des Prés verts 25250 L'ISLE SUR LE DOUBS,msap_mfs,,,03 81 86 02 63,adelaide.thiel@cc2vv.fr,https://lannuaire.service-public.fr/bourgogne-franche-comte/doubs/msap-25315-01,accomp_demarches-ateliers_formations-,acces_libre-,47.447226,6.588822,10 Rue des Pres Verts,10 Rue des Pres Verts 25250 L'Isle-sur-le-Doubs,L'Isle-sur-le-Doubs,25250
Mission Locale du Haut-Doubs,17 place des Bernardines,25300,PONTARLIER,25462,Pontarlier,CC du Grand Pontarlier,17 place des Bernardines 25300 PONTARLIER,collectivite,,,03 81 46 54 61,,https://missionslocales-bfc.fr/mission-locale-haut-doubs/,accomp_demarches-,,46.905997,6.354076,17 Place des Bernardines,17 Place des Bernardines 25300 Pontarlier,Pontarlier,25300
France services Amancey,13 rue du Four,25330,AMANCEY,25015,Amancey,CC Loue-Lison,13 rue du Four 25330 AMANCEY,msap_mfs,,,03 81 86 79 80,contact@msap-amancey.fr,https://lannuaire.service-public.fr/bourgogne-franche-comte/doubs/msap-25015-01,accomp_demarches-,acces_libre-,47.037799,6.070477,13 Rue du Four,13 Rue du Four 25330 Amancey,Amancey,25330
France Services Pays de Clerval,1 rue Portes des Noyes,25340,PAYS DE CLERVAL,25156,Pays-de-Clerval,CC des Deux Vallées Vertes,1 rue Portes des Noyes 25340 PAYS DE CLERVAL,msap_mfs,,Démarches CAF  CPAM  Pôle emploi  instruction RSA  accès aux droits numériques,06 24 77 22 96,coralie.burr@cc2vv.fr,https://lannuaire.service-public.fr/bourgogne-franche-comte/doubs/msap-25156-02,accomp_demarches-ateliers_formations-,adapt_handicap-acces_libre-,47.393324,6.497102,1 Rue Porte des Noyes,1 Rue Porte des Noyes 25340 Pays-de-Clerval,Pays-de-Clerval,25340
France Services Bouclans,1 Place de la Poste,25360,BOUCLANS,25078,Bouclans,CC des Portes du Haut-Doubs,1 Place de la Poste 25360 BOUCLANS,msap_mfs,,Ordinateurs en libre service  accès internet  photocopieuse  imprimante  scanner  téléphone  visioconférence et espace de confidentialité Travaille avec une startup « reconnect» pour proposer un coffre-fort numérique Accompagnement sur les démarches administratives (tous types). • Accompagnement spécifique sur les questions relatives à l’emploi : réalisation des démarches administratives (Pôle emploi; RSA  CAF  CPAM CARSAT  MSA  URSAFF) • Accompagnement dans une démarche de recherche d’emploi : définition du projet professionnel  rédaction CV et lettre de motivation  préparation des entretiens d’embauche  aide à la consultation d’offres  recherche de solutions (transport  garde d’enfants...),03 81 52 24 41,franceservices@bouclans.fr,https://lannuaire.service-public.fr/bourgogne-franche-comte/doubs/msap-25078-01,accomp_demarches-ateliers_formations-,adapt_handicap-acces_libre-,47.246367,6.236646,1 Place de la Poste,1 Place de la Poste 25360 Bouclans,Bouclans,25360
Espace citoyen,Centre Saint-Exupéry   49  rue Combe Mirey,25400,AUDINCOURT,25031,Audincourt,CA Pays de Montbéliard Agglomération,Centre Saint-Exupéry   49  rue Combe Mirey  25400 AUDINCOURT,collectivite,,,09 63 40 48 90.,,https://www.audincourt.fr/sports-loisirs/structures-danimation/espace-citoyen/,accomp_demarches-ateliers_formations-,acces_libre-,47.473836,6.857147,49 Rue de la Combe Mirey,49 Rue de la Combe Mirey 25400 Audincourt,Audincourt,25400
Association Saint-VIt Informatique,1bis  rue du Four,25410,SAINT VIT,25527,Saint-Vit,CA du Grand Besancon,1bis  rue du Four 25410 SAINT VIT,association,,,03 81 87 59 78,contact@saintvitinformatique.com,http://www.saintvitinformatique.com/,ateliers_formations-,acces_libre-,47.180216,5.810303,1bis Rue du Four,1bis Rue du Four 25410 Saint-Vit,Saint-Vit,25410
France Services - Sancey Belleherbe,14 bis Rue du Maréchal de Lattre de Tassigny,25430,SANCEY,25529,Sancey,CC du Pays de Sancey-Belleherbe,14 bis Rue du Maréchal de Lattre de Tassigny 25430 SANCEY,msap_mfs,,Démarches administratives en ligne  accès aux droits Accompagnement et utilisation de l'outil informatique Orientation  formation et accompagnement aux parents dans l'utilisation des tablettes numériques : suivi de la scolarité et service Pronote (à partir de septembre 2021),07 68 59 77 29,benedicte.gauthier@payssancey-belleherbe.fr,http://www.payssancey-belleherbe.fr/les-services-au-sein-du-vallon-de-sancey.html,accomp_demarches-ateliers_formations-,acces_libre-,47.303192,6.591553,14bis Rue du Mal de Lattre de Tassigny (Sancey-le-Long),14bis Rue du Mal de Lattre de Tassigny (Sancey-le-Long) 25430 Sancey,Sancey,25430
France Services- Antenne de Sancey,1 Allée des Sapins,25380,BELLEHERBE,25529,Sancey,CC du Pays de Sancey-Belleherbe,1 Allée des Sapins 25380 BELLEHERBE,msap_mfs,,France services itinérante,07 68 59 77 29,benedicte.gauthier@payssancey-belleherbe.fr,http://www.payssancey-belleherbe.fr/les-services-au-sein-du-plateau-de-belleherbe.html,accomp_demarches-ateliers_formations-,acces_libre-itinerance-,47.25957,6.656181,1 Allee des Sapins,1 Allee des Sapins 25380 Belleherbe,Belleherbe,25380
France services Quingey,4 Lot Rives de la Loue,25440,QUINGEY,25475,Quingey,CC Loue-Lison,4 Lot Rives de la Loue 25440 QUINGEY,msap_mfs,,"Accueil/information avec ou sans RDV. Entretien individuel et confidentiel sur RDV. 1 point internet administratif public en libre accès avec imprimante multifonction. Pour les permanences spécialisées : carte d'identité/passeport, droit de la famille, des femmes, conciliateur de justice, droit de la consommation, mission locale jeunes, pole rénovation, maison de l'habitat du doubs, CIAS...  Jours et horaires d'ouverture de France services : Lundi-mardi-mercredi 9h-12h30/13h30-18h Mercredi 9h-12h (sur RDV) Vendredi 9h-12h/13h3016h Samedi en semaine paire 9h-12h (sur RDV)",03 70 88 50,quingey@france-services.gouv.fr,https://cclouelison.fr/fr/rb/417588/france-services-24,accomp_demarches-,acces_libre-adapt_handicap,47.101956,5.882836,Lotissement les Rives de la Loue,Lotissement les Rives de la Loue 25440 Quingey,Quingey,25440
Maison des associations,Rue du 19 mars,25490,FESCHES LE CHATEL,25237,Fesches-le-Châtel,CA Pays de Montbéliard Agglomération,Rue du 19 mars 25490 FESCHES LE CHATEL,collectivite,,,03 81 93 00 10,,,accomp_demarches-,,47.523808,6.897258,Rue du 19 Mars 1962,Rue du 19 Mars 1962 25490 Fesches-le-Châtel,Fesches-le-Châtel,25490
AGASC - Maison pour tous,41 Grande rue,25550,BAVANS,25048,Bavans,CA Pays de Montbéliard Agglomération,41 Grande rue 25550 BAVANS,collectivite,,,03 81 92 64 25,assos.gestion@wanadoo.fr,,accomp_demarches-,acces_libre-,47.480477,6.736854,41 Grande Rue,41 Grande Rue 25550 Bavans,Bavans,25550
MSAP Frasne / Agence Postale Communale,18 rue de la Gare,25560,FRASNE,25259,Frasne,CC du Plateau de Frasne et du Val de Drugeon (CFD),18 rue de la Gare 25560 FRASNE,msap_mfs,,Imprimante  photocopieuse  scanner  ordinateur avec accès internet Accès aux sites des opérateurs partenaires (CAF  CPAM  MSA  DDFIP  Pôle Emploi…),,msap.frasne@laposte.fr,https://www.maisondeservicesaupublic.fr/content/frasne-bureau-de-poste,accomp_demarches-,adapt_handicap-acces_libre-,46.857464,6.158342,18 Rue de la Gare,18 Rue de la Gare 25560 Frasne,Frasne,25560
France services Les Premiers Sapins,8 rue de la Scierie,25580,LES PREMIERS SAPINS,25424,Les Premiers Sapins,CC des Portes du Haut-Doubs,8 rue de la Scierie 25580 LES PREMIERS SAPINS,msap_mfs,,Accès à internet  Wifi  Photocopieuse  imprimante  scanner  visioconférence  Téléphone  Assurer l’accueil de premier niveau pour les partenaires sociaux : proposer une permanence physique qui accompagne les personnes dans leur démarche  favoriser l’accès aux nouvelles technologies (cabine numérique  accompagnement  formation  …)  appuyer tous les projets citoyens grâce à l’accompagnement de l’espace de Vie Local  Cours informatiques : 2 modules de plusieurs niveaux (6 personnes par cours) en lien avec un prestataire externe (pris en charge par le CCAS),03 81 60 04 06,mairie.lps25@orange.fr,https://lannuaire.service-public.fr/bourgogne-franche-comte/doubs/msap-25424-01,accomp_demarches-ateliers_formations-,adapt_handicap-acces_libre-,47.098476,6.336568,8 Rue de la Scierie,8 Rue de la Scierie 25580 Les Premiers Sapins,Les Premiers Sapins,25580
France Services Sochaux,Rue de La Poste,25600,SOCHAUX,25547,Sochaux,CA Pays de Montbéliard Agglomération,Rue de La Poste 25600 SOCHAUX,msap_mfs,,Apprentissage de l'outil informatique pour accomplir les démarches en ligne,09 62 69 61 15,france.services.sochaux@outlook.fr,https://lannuaire.service-public.fr/bourgogne-franche-comte/doubs/msap-25547-01,accomp_demarches-ateliers_formations-,acces_libre-,47.513896,6.830879,Rue de la Poste,Rue de la Poste 25600 Sochaux,Sochaux,25600
Pôle Multimédia,Mairie,25600,SOCHAUX,25547,Sochaux,CA Pays de Montbéliard Agglomération,Mairie 25600 SOCHAUX,collectivite,,,03 81 94 53 42,POLE-MULTIMEDIA@SOCHAUX.FR,https://sochaux.fr/sochaux/loisirs-sports/pole-multimedia.htm,ateliers_formations-,acces_libre-,47.515475,6.828345,Sochaux,Sochaux,Sochaux,25600
Point multimédia,Le couvent,25190,SAINT HIPPOLYTE,25519,Saint-Hippolyte,CC du Pays de Maîche,Le couvent 25190 SAINT HIPPOLYTE,association,,Lieu d'information et d'accès aux droits,04.68.28.24.73,pjsthippo@hotmail.fr,https://mairie-saint-hippolyte.fr/point-jeunes/,,,47.318144,6.813229,Rue du Couvent,Rue du Couvent 25190 Saint-Hippolyte,Saint-Hippolyte,25190
MSAP Mamirolle ( Bureau de Poste),17 Grande Rue,25620,MAMIROLLE,25364,Mamirolle,CA du Grand Besancon,17 Grande Rue 25620 MAMIROLLE,msap_mfs,,,,msap.mamirolle@laposte.fr,,accomp_demarches-,acces_libre-,47.197153,6.161632,17 Grande Rue,17 Grande Rue 25620 Mamirolle,Mamirolle,25620
Club Miss,58 rue de Besançon,25630,SAINTE SUZANNE,25526,Sainte-Suzanne,CA Pays de Montbéliard Agglomération,58 rue de Besançon 25630 SAINTE SUZANNE,association,,,,,,ateliers_formations-,,47.506512,6.77488,58 Rue de Besançon,58 Rue de Besançon 25630 Sainte-Suzanne,Sainte-Suzanne,25630
France services Gilley,2 Avenue Jean de Lattre de Tassigny,25650,GILLEY,25271,Gilley,CC de Montbenoît,2 Avenue Jean de Lattre de Tassigny 25650 GILLEY,msap_mfs,,- Accès internet  Ordinateur  imprimante  scanner  photocopie et téléphone.  - Visioconférence notamment avec l’antenne Pôle Emploi de Morteau - Une personne à disposition du public pour un accompagnement à la réalisation des démarches administratives et quotidiennes,09 63 53 66 42,franceservices@gilley.fr,https://lannuaire.service-public.fr/bourgogne-franche-comte/doubs/msap-25271-01,accomp_demarches-,adapt_handicap-acces_libre-,47.047279,6.479033,2 Avenue Jean de Lattre,2 Avenue Jean de Lattre 25650 Gilley,Gilley,25650
France Services Rougemont,2 rue Basse,25680,ROUGEMONT,25184,Cuse-et-Adrisans,CC des Deux Vallées Vertes,2 rue Basse 25680 ROUGEMONT,msap_mfs,,,03 81 86 02 63,julie.boutin@cc2vv.fr,https://lannuaire.service-public.fr/bourgogne-franche-comte/doubs/msap-25505-01,accomp_demarches-ateliers_formations-,acces_libre-,47.479379,6.353959,2 Rue Basse,2 Rue Basse 25680 Rougemont,Rougemont,25680
Maison des Jeunes et de la Culture,10 Rue Carnot,25700,VALENTIGNEY,25580,Valentigney,CA Pays de Montbéliard Agglomération,10 Rue Carnot 25700 VALENTIGNEY,association,,,03 81 36 25 50,guyvandeneeckhoutte@orange.fr,http://www.mjcvalentigney.fr/,ateliers_formations-,,47.462348,6.836721,10 Rue Carnot,10 Rue Carnot 25700 Valentigney,Valentigney,25700
France services Valdahon,5 Place du Général de Gaulle,25800,VALDAHON,25578,Valdahon,CC des Portes du Haut-Doubs,5 Place du Général de Gaulle 25800 VALDAHON,msap_mfs,,1 ordinateur  Accès internet gratuit (limité à 1h/jour)  Imprimante  photocopieuse  scanner  espace de confidentialité  projet d’acquisition de webcams pour de la visio-conférence et de développer de nouveaux ateliers  Accompagnement sur les démarches administratives • Ateliers informatiques (prestataire extérieur) • Actions communes avec le CCAS et le CMS qui sont dans les mêmes locaux • Participation à l’opération « Cafés connectés »,03 81 26 04 10,mds@valdahon.com,https://lannuaire.service-public.fr/bourgogne-franche-comte/doubs/msap-25578-01,accomp_demarches-ateliers_formations-,adapt_handicap-acces_libre-,47.147983,6.345019,5 Place du Général de Gaulle,5 Place du Général de Gaulle 25800 Valdahon,Valdahon,25800
Crédit Agricole,33 Bis Rue Charles de Gaulle,25410,SAINT VIT,25527,Saint-Vit,CA du Grand Besancon,33 Bis Rue Charles de Gaulle 25410 SAINT VIT,entreprise,,,03 81 55 11 32,saint.vit@ca-franchecomte.fr,https://www.credit-agricole.fr/particulier/agence/franche-comte/saint-vit-3602.html,accomp_demarches-ateliers_formations-,,47.181358,5.807093,33b Rue Charles de Gaulle,33b Rue Charles de Gaulle 25410 Saint-Vit,Saint-Vit,25410
Crédit Agricole,31 Grande Rue  25140 Charquemont,25140,CHARQUEMONT,25127,Charquemont,CC du Pays de Maîche,31 Grande Rue  25140 Charquemont 25140 CHARQUEMONT,entreprise,,,03 81 44 00 78,charquemont@ca-franchecomte.fr,https://www.credit-agricole.fr/particulier/agence/franche-comte/charquemont-3589.html,accomp_demarches-ateliers_formations-,,47.211912,6.823314,31 Grande Rue,31 Grande Rue 25140 Charquemont,Charquemont,25140
Crédit Agricole,Ctre commercial Super U  Rue Emagny,25115,POUILLEY LES VIGNES,25127,Charquemont,CC du Pays de Maîche,Ctre commercial Super U  Rue Emagny 25115 POUILLEY LES VIGNES,entreprise,,,03 81 55 04 76,pouilley.les.vignes@ca-franchecomte.fr,https://www.credit-agricole.fr/particulier/agence/franche-comte/pouilley-les-vignes-3601.html,accomp_demarches-ateliers_formations-,,47.256734,5.93023,Rue d'Emagny,Rue d'Emagny 25115 Pouilley-les-Vignes,Pouilley-les-Vignes,25115
Crédit Agricole,21 rue de Besancon,25150,PONT DE ROIDE,25127,Charquemont,CC du Pays de Maîche,21 rue de Besancon 25150 PONT DE ROIDE,entreprise,,,03 81 99 87 40,pont.de.roide@ca-franchecomte.fr,https://www.credit-agricole.fr/particulier/agence/franche-comte/pont-de-roide-3631.html,accomp_demarches-ateliers_formations-,,47.384144,6.768161,Rue de Besançon,Rue de Besançon 25150 Pont-de-Roide-Vermondans,Pont-de-Roide-Vermondans,25150
MJC Palente,24 Rue des Roses,25000,BESANCON,25056,Besançon,CA du Grand Besancon,24 Rue des Roses 25000 BESANCON,association,,,03 81 80 42 92,mjcpalente.secretariat@gmail.com,http://www.mjc-palente.fr/,accomp_demarches-,acces_libre-,47.26023,6.045138,24 Rue des Roses,24 Rue des Roses 25000 Besançon,Besançon,25000
Complicité,6 Grande rue,25440,COURCELLES,25171,Courcelles,CC Loue-Lison,6 Grande rue 25440 COURCELLES,association,,,06 33 33 84 47,contact@association-complicite.com,https://association-complicite.com/,accomp_demarches-ateliers_formations-,,47.0944,5.955681,6 Grande Rue,6 Grande Rue 25440 Courcelles,Courcelles,25440
Familles Rurales,15 Avenue Général de Gaulle,25290,ORNANS,25434,Ornans,CC Loue-Lison,15 Avenue Général de Gaulle 25290 ORNANS,association,,,03 81 62 26 93,famillesruralespo@orange.fr,https://www.famillesrurales.org/pays-ornans/17/familles-rurales-du-pays-dornans,accomp_demarches-ateliers_formations-,acces_libre-,47.10747,6.140272,15 Av du General Charles de Gaulle,15 Av du General Charles de Gaulle 25290 Ornans,Ornans,25290
Club informatique Montferrand (Jeunesse et Culture),34 Rue de la Chapelle,25320,MONTFERRAND LE CHATEAU,25397,Montferrand-le-Château,CA du Grand Besancon,34 Rue de la Chapelle 25320 MONTFERRAND LE CHATEAU,association,,,03 81 56 63 91,clubinfo25320@gmail.com,http://clubinfo25320.chez.com/,accomp_demarches-ateliers_formations-,,47.178024,5.921983,34 Rue de la Chapelle,34 Rue de la Chapelle 25320 Montferrand-le-Château,Montferrand-le-Château,25320
Club multimédia Vercel,9 rue de Jésus,25530,VERCEL VILLEDIEU LE CAMP,25601,Vercel-Villedieu-le-Camp,CC des Portes du Haut-Doubs,9 rue de Jésus 25530 VERCEL VILLEDIEU LE CAMP,association,,Formateurs bénévoles. Cotisations pour participer aux formations. Ateliers par thème (usage internet  usages des sites de services publics  Libre Office  photos et albums...),06 33 25 50 46,bacilierip@aol.com,https://www.intramuros.org/vercel-villedieu-le-camp/associations/47748,ateliers_formations-,adapt_handicap-,47.18239,6.398801,9 Rue de Jésus,9 Rue de Jésus 25530 Vercel-Villedieu-le-Camp,Vercel-Villedieu-le-Camp,25530
Les petits débrouillards,1 Rue de Champagne,25000,BESANCON,25056,Besançon,CA du Grand Besancon,1 Rue de Champagne 25000 BESANCON,association,,,03 81 51 74 88,franche_comte@lespetitsdebrouillards.org,https://www.lespetitsdebrouillardsbourgognefranchecomte.org/rubrique2.html,ateliers_formations-,,47.22331,5.976274,1 Rue de Champagne,1 Rue de Champagne 25000 Besançon,Besançon,25000
Comité de quartier Rosemont St Frejeux,1 Avenue Ducat,25000,BESANCON,25056,Besançon,CA du Grand Besancon,1 Avenue Ducat 25000 BESANCON,association,,,03 81 52 42 52,maison.quartier@comite-stferjeux.fr,http://www.mdq-saintferjeux.fr/sengager/le-comite-de-quartier-vous-invite.html,accomp_demarches-ateliers_formations-,acces_libre-,47.230665,5.992171,1 Avenue Ducat,1 Avenue Ducat 25000 Besançon,Besançon,25000
CCAS Besancon,9 Rue Pablo Picasso,25050,BESANCON,25056,Besançon,CA du Grand Besancon,9 Rue Pablo Picasso 25050 BESANCON,ccas,,,03 81 41 21 21,ccas@besancon.fr,https://www.besancon.fr/la-ville/ccas-de-besancon/,accomp_demarches-ateliers_formations-,acces_libre-,47.21937,5.973427,9 Rue Pablo Picasso,9 Rue Pablo Picasso 25000 Besançon,Besançon,25000
CCAS Pontarlier,6 Rue des Capucins,25300,PONTARLIER,25462,Pontarlier,CC du Grand Pontarlier,6 Rue des Capucins 25300 PONTARLIER,ccas,,,03 81 46 51 36,c.c.a.s@ville-pontarlier.com,https://www.ville-pontarlier.fr/page/vivre-a-pontarlier/vie-quotidienne-2/action-sociale/le-ccas,ateliers_formations-,,46.906853,6.350273,6 Rue des Capucins,6 Rue des Capucins 25300 Pontarlier,Pontarlier,25300
CIAS Quingey,Mairie Quingey  place d'armes,25440,QUINGEY,25475,Quingey,CC Loue-Lison,Mairie Quingey  place d'armes 25440 QUINGEY,ccas,,,03 81 62 20 19,cias@louelison.fr,,accomp_demarches-,,47.103063,5.883542,Place d'Armes,Place d'Armes 25440 Quingey,Quingey,25440
CIAS Loue-Lison,7  rue Edouard-Bastide,25290,ORNANS,25434,Ornans,CC Loue-Lison,7  rue Edouard-Bastide 25290 ORNANS,ccas,,,03 81 62 20 19,cias@louelison.fr,https://cclouelison.fr/fr/rb/417549/cias-1,accomp_demarches-,,47.102684,6.154375,7 Rue Edouard Bastide,7 Rue Edouard Bastide 25290 Ornans,Ornans,25290
CCAS Morteau,6 Rue Barral  25500 Morteau,25500,MORTEAU,25411,Morteau,CC du Val de Morteau,6 Rue Barral  25500 Morteau 25500 MORTEAU,ccas,,,03 81 68 56 86,,https://www.morteau.org/vos-services/ccas-solidarite-seniors-logement/presentation-du-ccas/,accomp_demarches-ateliers_formations-,,47.057225,6.603777,6 Rue Barral,6 Rue Barral 25500 Morteau,Morteau,25500
CMS Planoise Besancon,20 Boulevard Salvador Allende,25000,BESANCON,25056,Besançon,CA du Grand Besancon,20 Boulevard Salvador Allende 25000 BESANCON,cms,,,03 81 51 00 41,CMSPlanoise@doubs.fr,,accomp_demarches-ateliers_formations-,,47.218956,5.968912,20 Boulevard Salvador Allendé,20 Boulevard Salvador Allendé 25000 Besançon,Besançon,25000
CMS Novillars,2 rue Louis Pasteur,25220,NOVILLARS,25429,Novillars,CA du Grand Besancon,2 rue Louis Pasteur 25220 NOVILLARS,cms,,,03 81 55 61 25,cms.novillars@doubs.fr,https://www.doubs.fr/index.php/geolocalisation/33:cms-novillars,accomp_demarches-,,47.288794,6.130762,2 Rue Louis Pasteur,2 Rue Louis Pasteur 25220 Novillars,Novillars,25220
CMS Maiche,3 Rue Des Boutons D'or,25120,MAICHE,25356,Maîche,CC du Pays de Maîche,3 Rue Des Boutons D'or 25120 MAICHE,cms,,,03 81 64 06 57,cms.maiche@doubs.fr,https://www.doubs.fr/index.php/geolocalisation/33:cms-novillars,accomp_demarches-,,47.25497,6.794813,3 Rue des Boutons d’Or,3 Rue des Boutons d’Or 25120 Maîche,Maîche,25120
CMS L'Isle sur le Doubs,78 Bis rue Magny,25250,L'ISLE SUR LE DOUBS,25315,L'Isle-sur-le-Doubs,CC des Deux Vallées Vertes,78 Bis rue Magny 25250 L'ISLE SUR LE DOUBS,cms,,,03 81 92 73 98,cms.islesurledoubs@doubs.fr,https://www.islesurledoubs.fr/centre-medico-social.htm,accomp_demarches-,,47.442861,6.580084,78b Rue du Magny,78b Rue du Magny 25250 L'Isle-sur-le-Doubs,L'Isle-sur-le-Doubs,25250
CMS Besancon Montrapon,7 Rue de l'Epitaphe,25000,BESANCON,25056,Besançon,CA du Grand Besancon,7 Rue de l'Epitaphe 25000 BESANCON,cms,,,03 81 50 42 84,cms.temis@doubs.fr,https://www.doubs.fr/index.php/geolocalisation/29:cms-montrapon,accomp_demarches-ateliers_formations-,,47.247489,5.998712,7 Rue de l'Epitaphe,7 Rue de l'Epitaphe 25000 Besançon,Besançon,25000
Maison de quartier Mandela,13 Av. de l'Île de France,25000,BESANCON,25056,Besançon,CA du Grand Besancon,13 Av. de l'Île de France 25000 BESANCON,association,,,03 81 87 81 20,planoise.mdq@besançon.fr,http://planoisactive.fr/apropos,,acces_libre-,47.221329,5.967441,13 Avenue de l'île de France,13 Avenue de l'île de France 25000 Besançon,Besançon,25000
Médiathèque Pontarlier,69 Rue de la République,25300,PONTARLIER,25462,Pontarlier,CC du Grand Pontarlier,69 Rue de la République 25300 PONTARLIER,biblioth_que,,,03 81 38 81 37,mediatheque@ville-pontarlier.com,https://mediatheque.ville-pontarlier.fr/,,acces_libre-,46.903805,6.354288,69 Rue de la République,69 Rue de la République 25300 Pontarlier,Pontarlier,25300
Maison des séniors Besancon,8 Rue Pasteur,25000,BESANCON,25056,Besançon,CA du Grand Besancon,8 Rue Pasteur 25000 BESANCON,collectivite,,,03 81 41 22 04,maison-des-seniors@besancon.fr,https://www.grandbesancon.fr/infos-pratiques/solidarite-sante/maison-des-seniors/,accomp_demarches-,acces_libre-,47.238209,6.021914,8 Rue Pasteur,8 Rue Pasteur 25000 Besançon,Besançon,25000
MJC Clairs-Soleils,67E Rue de Chalezeule,25000,BESANCON,25056,Besançon,CA du Grand Besancon,67E Rue de Chalezeule 25000 BESANCON,association,,,03 81 50 69 93,http://www.mjc-besancon.fr/,,accomp_demarches-ateliers_formations-,,47.24935,6.053506,67e Rue de Chalezeule,67e Rue de Chalezeule 25000 Besançon,Besançon,25000
CCAS Baumes les Dames,3 Place de la République,25110,BAUME LES DAMES,25047,Baume-les-Dames,CC du Doubs Baumois,3 Place de la République 25110 BAUME LES DAMES,ccas,,,03 81 84 75 10,actionsociale@baumelesdames.org,,,acces_libre-,47.352575,6.36156,3 Place de la Republique,3 Place de la Republique 25110 Baume-les-Dames,Baume-les-Dames,25110
CCAS de Montbéliard,11 rue Maurice Ravel,25200,MONTBELIARD,25388,Montbéliard,CA Pays de Montbéliard Agglomération,11 rue Maurice Ravel 25200 MONTBELIARD,ccas,,- Formation à l'outil numérique - Accès internet avec accompagnement   aider les usagers en démarchant auprès de CAF  CPAM  Impôts  Ameli...,03 81 99 23 00,ccas@montbeliard.com,,ateliers_formations-,,47.497154,6.799938,11 Rue Maurice Ravel,11 Rue Maurice Ravel 25200 Montbéliard,Montbéliard,25200
CCAS de Bethoncourt,13 rue Buffon,25200,BETHONCOURT,25057,Bethoncourt,CA Pays de Montbéliard Agglomération,13 rue Buffon 25200 BETHONCOURT,ccas,,UVTD (Université Virtuelle du Temps Disponible) - Proposer des conférences à distance,03 81 96 61 93,,https://www.bethoncourt.fr/ccas/,ateliers_formations-,,47.532991,6.804307,13 Rue Buffon,13 Rue Buffon 25200 Bethoncourt,Bethoncourt,25200
Cafés connectés (CCAS),Mairie de L'Isle-sur-le Doubs  Place François Mitterrand,25250,L'ISLE SUR LE DOUBS,25315,L'Isle-sur-le-Doubs,CC des Deux Vallées Vertes,Mairie de L'Isle-sur-le Doubs  Place François Mitterrand   25250 L'ISLE SUR LE DOUBS,ccas,,Cafés connectés,,,,ateliers_formations-,,45.663288,0.198598,Place Francois Mitterrand,Place Francois Mitterrand 16340 L'Isle-d'Espagnac,L'Isle-d'Espagnac,16340
Cafés connectés (CCAS),6  Rue Barral,25500,MORTEAU,25411,Morteau,CC du Val de Morteau,6  Rue Barral 25500 MORTEAU,ccas,,Cafés connectés,,,,ateliers_formations-,,47.057225,6.603777,6 Rue Barral,6 Rue Barral 25500 Morteau,Morteau,25500
Cafés connectés (CCAS),1 rue des Fleurs,25550,BAVANS,25048,Bavans,CA Pays de Montbéliard Agglomération,1 rue des Fleurs 25550 BAVANS,ccas,,Accomplissement des démarches CAF  CPAM  Ameli  Impôts... Avec accompagnement - ateliers (+ de 60ans) - septembre 2021,,,,accomp_demarches-ateliers_formations-,,47.481907,6.730071,1 Rue des Fleurs,1 Rue des Fleurs 25550 Bavans,Bavans,25550
Cafés connectés (CCAS),3 place de la République,25110,BAUME LES DAMES,25047,Baume-les-Dames,CC du Doubs Baumois,3 place de la République 25110 BAUME LES DAMES,ccas,,Cafés connectés,,,,ateliers_formations-,,47.352575,6.36156,3 Place de la Republique,3 Place de la Republique 25110 Baume-les-Dames,Baume-les-Dames,25110
Cafés connectés (CCAS),1 RUE DE L'HOTEL DE VILLE,25800,VALDAHON,25578,Valdahon,CC des Portes du Haut-Doubs,1 RUE DE L'HOTEL DE VILLE 25800 VALDAHON,ccas,,Cafés connectés,,,,ateliers_formations-,,47.150295,6.350584,1 Rue de l'Hôtel de Ville,1 Rue de l'Hôtel de Ville 25800 Valdahon,Valdahon,25800
Cafés connectés (CCAS),Place Emile Peugeot,25700,MATHAY,25370,Mathay,CA Pays de Montbéliard Agglomération,Place Emile Peugeot 25700 MATHAY,ccas,,Cafés connectés,,,,ateliers_formations-,,47.461257,6.837109,Place Emile Peugeot,Place Emile Peugeot 25700 Valentigney,Valentigney,25700
Cafés connectés (CCAS),Rue Jules-Ferry,25310,BLAMONT,25063,Blamont,CA Pays de Montbéliard Agglomération,Rue Jules-Ferry 25310 BLAMONT,ccas,,Cafés connectés,,,,ateliers_formations-,,47.386009,6.847818,Rue Jules Ferry,Rue Jules Ferry 25310 Blamont,Blamont,25310
Cafés connectés (ADMR),1  place de la Libération,25530,VERCEL VILLEDIEU LE CAMP,25601,Vercel-Villedieu-le-Camp,CC des Portes du Haut-Doubs,1  place de la Libération 25530 VERCEL VILLEDIEU LE CAMP,ccas,,Cafés connectés,,,,ateliers_formations-,,47.183131,6.398144,1 Place de la Libération,1 Place de la Libération 25530 Vercel-Villedieu-le-Camp,Vercel-Villedieu-le-Camp,25530
Cafés connectés (CCAS),11 rue Maurice Ravel,25200,MONTBELIARD,25388,Montbéliard,CA Pays de Montbéliard Agglomération,11 rue Maurice Ravel 25200 MONTBELIARD,ccas,,Cafés connectés,,,,,,47.497154,6.799938,11 Rue Maurice Ravel,11 Rue Maurice Ravel 25200 Montbéliard,Montbéliard,25200
Cafés connectés (CCAS),13 rue Buffon,25200,BETHONCOURT,25057,Bethoncourt,CA Pays de Montbéliard Agglomération,13 rue Buffon 25200 BETHONCOURT,ccas,,Cafés connectés,,,,,,47.532991,6.804307,13 Rue Buffon,13 Rue Buffon 25200 Bethoncourt,Bethoncourt,25200
Cafés connectés (CCAS),5 B rue Pierre Peugeot,25310,HERIMONCOURT,25304,Hérimoncourt,CA Pays de Montbéliard Agglomération,5 B rue Pierre Peugeot 25310 HERIMONCOURT,ccas,,Cafés connectés,,,,,,47.442186,6.883117,5b Rue Pierre Peugeot,5b Rue Pierre Peugeot 25310 Hérimoncourt,Hérimoncourt,25310
Cafés connectés (CCAS),1  rue Pasteur,25130,VILLERS LE LAC,25321,Villers-le-Lac,CC du Val de Morteau,1  rue Pasteur 25130 VILLERS LE LAC,ccas,,Cafés connectés,,,,,,47.058913,6.667112,1 Rue Pasteur,1 Rue Pasteur 25130 Villers-le-Lac,Villers-le-Lac,25130
Cafés connectés (CCAS),2  rue de la Gare,25560,FRASNE,25259,Frasne,CC du Plateau de Frasne et du Val de Drugeon (CFD),2  rue de la Gare 25560 FRASNE,ccas,,Cafés connectés,,,,,,46.85724,6.159942,2 Rue de la Gare,2 Rue de la Gare 25560 Frasne,Frasne,25560
Cafés connectés (CCAS),26 rue de la Mairie,25660,SAONE,25532,Saône,CA du Grand Besancon,26 rue de la Mairie 25660 SAONE,ccas,,Cafés connectés,,,,,,47.22504,6.117091,26 Rue de la Mairie,26 Rue de la Mairie 25660 Saône,Saône,25660
Cafés connectés (COMMUNE),23  Grande rue,25640,CENDREY,25107,Cendrey,CC du Doubs Baumois,23  Grande rue 25640 CENDREY,collectivite,,Cafés connectés,,,,,,47.404358,6.245031,23 Grande Rue,23 Grande Rue 25640 Cendrey,Cendrey,25640
ADMR résidence séniors,Place du 8 Mai,25500,LES FINS,25240,Les Fins,CC du Val de Morteau,Place du 8 Mai 25500 LES FINS,association,,Ilots numériques,03 81 56 22 44,info.fede25@admr.org,https://www.fede25.admr.org/,,,47.07848,6.628737,Place du 8 Mai,Place du 8 Mai 25500 Les Fins,Les Fins,25500
Ilots numériques (La Poste Champs Montants),9 rue de la Mairie,25400,AUDINCOURT,25031,Audincourt,CA Pays de Montbéliard Agglomération,9 rue de la Mairie 25400 AUDINCOURT,entreprise,,Ilots numériques,,,,accomp_demarches-,acces_libre-,47.481366,6.841397,9 Rue de la Mairie,9 Rue de la Mairie 25400 Audincourt,Audincourt,25400
Ilots numériques (La Poste),4 Place du Général de Gaulle,25650,GILLEY,25271,Gilley,CC de Montbenoît,4 Place du Général de Gaulle 25650 GILLEY,entreprise,,Ilots numériques avec points d’accès internet Imprimantes  scanners  ordinateurs avec accès aux sites des opérateurs partenaires (CAF  CPAM  MSA  DDFIP  Pôle Emploi…) Accompagnement par un agent de la municipalité (ex : secrétaire),,,,accomp_demarches-,adapt_handicap-acces_libre-,47.047357,6.478672,4 Place du General de Gaulle,4 Place du General de Gaulle 25650 Gilley,Gilley,25650
Ilots numériques (La Poste),4 Rue du Vieux Moulin,25310,HERIMONCOURT,25304,Hérimoncourt,CA Pays de Montbéliard Agglomération,4 Rue du Vieux Moulin 25310 HERIMONCOURT,entreprise,,Ilots numériques,,,,accomp_demarches-,acces_libre-,47.441434,6.881275,4 Rue du Vieux Moulin,4 Rue du Vieux Moulin 25310 Hérimoncourt,Hérimoncourt,25310
Ilots numériques (La Poste),5 Rue de l'Eglise,25290,EPEUGNEY,25220,Epeugney,CC Loue-Lison,5 Rue de l'Eglise 25290 EPEUGNEY,entreprise,,Ilots numériques,,,,accomp_demarches-,acces_libre-,47.116994,6.024344,5 Rue de l'Eglise,5 Rue de l'Eglise 25290 Épeugney,Épeugney,25290
Ilots numériques (La Poste),29 RUE DE LA 5E DB,25750,ARCEY,25512,Le Russey,CC du Plateau de Russey,29 RUE DE LA 5E DB 25750 ARCEY,entreprise,,Ilots numériques avec points d’accès internet Imprimantes  scanners  ordinateurs avec accès aux sites des opérateurs partenaires (CAF  CPAM  MSA  DDFIP  Pôle Emploi…) Accompagnement par un agent de la municipalité (ex : secrétaire),,,,accomp_demarches-,adapt_handicap-acces_libre-,47.521577,6.658439,29 Rue de la 5e Db,29 Rue de la 5e Db 25750 Arcey,Arcey,25750
Ilots numériques (La Poste),1 RUE PORTE DES NOYES,25340,PAYS DE CLERVAL,25512,Le Russey,CC du Plateau de Russey,1 RUE PORTE DES NOYES 25340 PAYS DE CLERVAL,entreprise,,Ilots numériques avec points d’accès internet Imprimantes  scanners  ordinateurs avec accès aux sites des opérateurs partenaires (CAF  CPAM  MSA  DDFIP  Pôle Emploi…) Accompagnement par un agent de la municipalité (ex : secrétaire),,,,accomp_demarches-,adapt_handicap-acces_libre-,47.393324,6.497102,1 Rue Porte des Noyes,1 Rue Porte des Noyes 25340 Pays-de-Clerval,Pays-de-Clerval,25340
Ilots numériques (La Poste),4 PLACE DU MARCHE,25680,ROUGEMONT,25512,Le Russey,CC du Plateau de Russey,4 PLACE DU MARCHE 25680 ROUGEMONT,entreprise,,Ilots numériques avec points d’accès internet Imprimantes  scanners  ordinateurs avec accès aux sites des opérateurs partenaires (CAF  CPAM  MSA  DDFIP  Pôle Emploi…) Accompagnement par un agent de la municipalité (ex : secrétaire),,,,accomp_demarches-,adapt_handicap-acces_libre-,47.480046,6.354887,4 Place du Marché,4 Place du Marché 25680 Rougemont,Rougemont,25680
Ilots numériques (La Poste),10 PLACE BUGNET,25270,LEVIER,25512,Le Russey,CC du Plateau de Russey,10 PLACE BUGNET 25270 LEVIER,entreprise,,Ilots numériques avec points d’accès internet Imprimantes  scanners  ordinateurs avec accès aux sites des opérateurs partenaires (CAF  CPAM  MSA  DDFIP  Pôle Emploi…) Accompagnement par un agent de la municipalité (ex : secrétaire),,,,accomp_demarches-,adapt_handicap-acces_libre-,46.953653,6.116531,10 Place Bugnet,10 Place Bugnet 25270 Levier,Levier,25270
Ilots numériques (La Poste),1 GRANDE RUE,25240,MOUTHE,25413,Mouthe,CC des Lacs et Montagnes du Haut-Doubs,1 GRANDE RUE 25240 MOUTHE,entreprise,,Ilots numériques avec points d’accès internet Imprimantes  scanners  ordinateurs avec accès aux sites des opérateurs partenaires (CAF  CPAM  MSA  DDFIP  Pôle Emploi…) Accompagnement par un agent de la municipalité (ex : secrétaire),,,,,,46.710386,6.192658,1 Grande Rue,1 Grande Rue 25240 Mouthe,Mouthe,25240
Ilots numériques (La Poste),1 PLACE DE LA POSTE,25360,BOUCLANS,25078,Bouclans,CC des Portes du Haut-Doubs,1 PLACE DE LA POSTE 25360 BOUCLANS,entreprise,,Ilots numériques avec points d’accès internet Imprimantes  scanners  ordinateurs avec accès aux sites des opérateurs partenaires (CAF  CPAM  MSA  DDFIP  Pôle Emploi…) Accompagnement par un agent de la municipalité (ex : secrétaire),,,,,,47.246367,6.236646,1 Place de la Poste,1 Place de la Poste 25360 Bouclans,Bouclans,25360
Ilots numériques (La Poste),13 RUE DU FOUR,25330,AMANCEY,25015,Amancey,CC Loue-Lison,13 RUE DU FOUR 25330 AMANCEY,entreprise,,Ilots numériques avec points d’accès internet Imprimantes  scanners  ordinateurs avec accès aux sites des opérateurs partenaires (CAF  CPAM  MSA  DDFIP  Pôle Emploi…) Accompagnement par un agent de la municipalité (ex : secrétaire),,,,,,47.037799,6.070477,13 Rue du Four,13 Rue du Four 25330 Amancey,Amancey,25330
Ilots numériques (La Poste),18 RUE DE LA GARE,25560,FRASNE,25259,Frasne,CC du Plateau de Frasne et du Val de Drugeon (CFD),18 RUE DE LA GARE 25560 FRASNE,entreprise,,Ilots numériques avec points d’accès internet Imprimantes  scanners  ordinateurs avec accès aux sites des opérateurs partenaires (CAF  CPAM  MSA  DDFIP  Pôle Emploi…) Accompagnement par un agent de la municipalité (ex : secrétaire),,,,,,46.857464,6.158342,18 Rue de la Gare,18 Rue de la Gare 25560 Frasne,Frasne,25560
Ilots numériques (La Poste),1 RUE FRANCOIS MITTERRAND,25490,FESCHES LE CHATEL,25512,Fesches-le-Châtel,CA Pays de Montbéliard Agglomération,1 RUE FRANCOIS MITTERRAND 25490 FESCHES LE CHATEL,entreprise,,Ilots numériques avec points d’accès internet Imprimantes  scanners  ordinateurs avec accès aux sites des opérateurs partenaires (CAF  CPAM  MSA  DDFIP  Pôle Emploi…) Accompagnement par un agent de la municipalité (ex : secrétaire),,,,accomp_demarches-,adapt_handicap-acces_libre-,47.522481,6.912569,1 Rue Francois Mitterrand,1 Rue Francois Mitterrand 25490 Fesches-le-Châtel,Fesches-le-Châtel,25490
Ilots numériques (La Poste),4 Place Toussaint Louverture,25260,MONTENOIS,25394,Montenois,CA Pays de Montbéliard Agglomération,4 Place Toussaint Louverture 25260 MONTENOIS,entreprise,,Ilots numériques avec points d’accès internet Imprimantes  scanners  ordinateurs avec accès aux sites des opérateurs partenaires (CAF  CPAM  MSA  DDFIP  Pôle Emploi…) Accompagnement par un agent de la municipalité (ex : secrétaire),,,,accomp_demarches-,acces_libre-,47.491888,6.665429,4 Place Toussaint Louverture,4 Place Toussaint Louverture 25260 Montenois,Montenois,25260
Ilots numériques (La Poste),8 Rue de l'Europe,25700,MATHAY,25370,Mathay,CA Pays de Montbéliard Agglomération,8 Rue de l'Europe 25700 MATHAY,entreprise,,Ilots numériques avec points d’accès internet Imprimantes  scanners  ordinateurs avec accès aux sites des opérateurs partenaires (CAF  CPAM  MSA  DDFIP  Pôle Emploi…) Accompagnement par un agent de la municipalité (ex : secrétaire),,,,accomp_demarches-,acces_libre-,47.437441,6.786037,8 Rue de l'Europe,8 Rue de l'Europe 25700 Mathay,Mathay,25700
Ilots numériques (La Poste),1 Rue de la Mairie,25420,BART,25043,Bart,CA Pays de Montbéliard Agglomération,1 Rue de la Mairie 25420 BART,entreprise,,Ilots numériques avec points d’accès internet Imprimantes  scanners  ordinateurs avec accès aux sites des opérateurs partenaires (CAF  CPAM  MSA  DDFIP  Pôle Emploi…) Accompagnement par un agent de la municipalité (ex : secrétaire),,,,accomp_demarches-,acces_libre-,47.491793,6.771382,1 Rue de la Mairie,1 Rue de la Mairie 25420 Bart,Bart,25420
Ilots numériques (La Poste),7 Place de la Libération,25790,LES GRAS,25296,Les Gras,CC du Val de Morteau,7 Place de la Libération 25790 LES GRAS,entreprise,,Ilots numériques avec points d’accès internet Imprimantes  scanners  ordinateurs avec accès aux sites des opérateurs partenaires (CAF  CPAM  MSA  DDFIP  Pôle Emploi…) Accompagnement par un agent de la municipalité (ex : secrétaire),,,,accomp_demarches-,adapt_handicap-acces_libre-,46.995358,6.544153,7 Place de la Liberation,7 Place de la Liberation 25790 Les Gras,Les Gras,25790
Ilots numériques (La Poste),2 T Rue du Lomont,25310,BLAMONT,25063,Blamont,CA Pays de Montbéliard Agglomération,2 T Rue du Lomont 25310 BLAMONT,entreprise,,Ilots numériques avec points d’accès internet Imprimantes  scanners  ordinateurs avec accès aux sites des opérateurs partenaires (CAF  CPAM  MSA  DDFIP  Pôle Emploi…) Accompagnement par un agent de la municipalité (ex : secrétaire),,,,accomp_demarches-,acces_libre-,47.385425,6.851519,2t Rue du Lomont,2t Rue du Lomont 25310 Blamont,Blamont,25310
Ilots numériques (La Poste),17 Rue de Franche Comté,25300,VERRIERES DE JOUX,25609,Verrières-de-Joux,CC du Grand Pontarlier,17 Rue de Franche Comté 25300 VERRIERES DE JOUX,entreprise,,Ilots numériques avec points d’accès internet Imprimantes  scanners  ordinateurs avec accès aux sites des opérateurs partenaires (CAF  CPAM  MSA  DDFIP  Pôle Emploi…) Accompagnement par un agent de la municipalité (ex : secrétaire),,,,accomp_demarches-,adapt_handicap-acces_libre-,46.897096,6.449935,17 Rue de Franche-comté,17 Rue de Franche-comté 25300 Verrières-de-Joux,Verrières-de-Joux,25300
Ilots numériques (La Poste),18 Avenue de l'Ile de France,25000,BESANCON,25056,Besançon,CA du Grand Besancon,18 Avenue de l'Ile de France 25000 BESANCON,entreprise,,Ilots numériques avec points d’accès internet Imprimantes  scanners  ordinateurs avec accès aux sites des opérateurs partenaires (CAF  CPAM  MSA  DDFIP  Pôle Emploi…) Accompagnement par un agent de la municipalité (ex : secrétaire),,,,accomp_demarches-,acces_libre-,47.221396,5.967028,18 Avenue de l'île de France,18 Avenue de l'île de France 25000 Besançon,Besançon,25000
Etapes Numérique (La Poste),Esplanade des Fêtes,25190,SAINT HIPPOLYTE,25519,Saint-Hippolyte,CC du Pays de Maîche,Esplanade des Fêtes 25190 SAINT HIPPOLYTE,entreprise,,Ilots numériques avec points d’accès internet Imprimantes  scanners  ordinateurs avec accès aux sites des opérateurs partenaires (CAF  CPAM  MSA  DDFIP  Pôle Emploi…) Accompagnement par un agent de la municipalité (ex : secrétaire),,,,,,47.320281,6.814496,Rue des Forges,Rue des Forges 25190 Saint-Hippolyte,Saint-Hippolyte,25190
Technopole TEMIS,18 Rue Alain Savary,25000,BESANCON,25056,Besançon,CA du Grand Besancon,18 Rue Alain Savary 25000 BESANCON,espnum,,,03 81 50 46 95,bruno.favier@temis.org,,tierslieux_cowork-,,47.251757,5.998127,18 Rue Alain Savary,18 Rue Alain Savary 25000 Besançon,Besançon,25000
SEM Numérica,Cours Louis Leprince-Ringuet,25200,MONTBELIARD,25388,Montbéliard,CA Pays de Montbéliard Agglomération,Cours Louis Leprince-Ringuet 25200 MONTBELIARD,entreprise,,,03 81 31 26 80,contact@numericabfc.com,https://numericabfc.com/,tierslieux_cowork-,,47.496067,6.805527,Cours Louis Leprince Ringuet,Cours Louis Leprince Ringuet 25200 Montbéliard,Montbéliard,25200
La tant'ative - espace de coworking,5 Rue Marpaud,25300,PONTARLIER,25462,Pontarlier,CC du Grand Pontarlier,5 Rue Marpaud 25300 PONTARLIER,espnum,,Différents espaces de travail (coworking  salle de réunion) Cotisation annuelle ou location ponctuelle,06 31 83 98 56,tanta@aliceadsl.fr,https://www.tant-a.org/la-tantative/,tierslieux_cowork-,adapt_handicap-acces_libre-,46.90214,6.354467,Rue Marpaud,Rue Marpaud 25300 Pontarlier,Pontarlier,25300
CCAS Valentigney,10 Place Emile Peugeot,25700,VALENTIGNEY,25580,Valentigney,CA Pays de Montbéliard Agglomération,10 Place Emile Peugeot 25700 VALENTIGNEY,ccas,,Accès internet  Caf  Cpam  Pôle emploi Connexion internet avec accompagnement aux droits numériques,03 81 36 25 02,ccas@valentigney.f,https://www.valentigney.fr/ccas.html,accomp_demarches-ateliers_formations-,acces_libre-,47.461257,6.837109,Place Emile Peugeot,Place Emile Peugeot 25700 Valentigney,Valentigney,25700
Bibliothèque de Morteau,10 Place de la Halle,25500,MORTEAU,25411,Morteau,CC du Val de Morteau,10 Place de la Halle 25500 MORTEAU,biblioth_que,,5 ordinateurs en libre accès (pas d'assistance)+ Cours informatique pour les sénior réalisés par une formatrice externe,03 81 68 56 88,,https://mediatheque.morteau.org/,ateliers_formations-,adapt_handicap-acces_libre-,47.056997,6.603397,10 Place de la Halle,10 Place de la Halle 25500 Morteau,Morteau,25500
Bibliothèque de Quingey,15 Rue des Salines,25440,QUINGEY,25475,Quingey,CC Loue-Lison,15 Rue des Salines 25440 QUINGEY,biblioth_que,,,03 81 63 88 57,lesmotsdelaloue.mediatheque@gmail.com,https://mediathequedupaysdequingey.wordpress.com/,ateliers_formations-,acces_libre-,47.102263,5.882119,15 Rue des Salines,15 Rue des Salines 25440 Quingey,Quingey,25440
Bibliothèque de Saint-Vit,24 Rue Charles de Gaulle,25410,SAINT VIT,25527,Saint-Vit,CA du Grand Besancon,24 Rue Charles de Gaulle 25410 SAINT VIT,biblioth_que,,,03 81 87 00 99,mediatheque@saintvit.fr,https://saintvit.bibenligne.fr/,ateliers_formations-,acces_libre-,47.181808,5.81109,24 Rue Charles de Gaulle,24 Rue Charles de Gaulle 25410 Saint-Vit,Saint-Vit,25410
Bibliothèque de L'isle sur le Doubs,20 Rue Bourlier,25250,L'ISLE SUR LE DOUBS,25315,L'Isle-sur-le-Doubs,CC des Deux Vallées Vertes,20 Rue Bourlier 25250 L'ISLE SUR LE DOUBS,biblioth_que,,,03 81 99 37 80,mairie@islesurledoubs.fr,https://www.islesurledoubs.fr/loisirs/bibliotheque-municipale.htm,ateliers_formations-,acces_libre-,47.447187,6.586115,20 Rue du Lieutenant Henri Bourlier,20 Rue du Lieutenant Henri Bourlier 25250 L'Isle-sur-le-Doubs,L'Isle-sur-le-Doubs,25250
Bibliothèque Amancey,13 rue du four,25330,AMANCEY,25015,Amancey,CC Loue-Lison,13 rue du four 25330 AMANCEY,biblioth_que,,,03 81 86 75 72,biball@amancey.org,https://www.bibliotheque-ccall.fr/,,acces_libre-,47.037799,6.070477,13 Rue du Four,13 Rue du Four 25330 Amancey,Amancey,25330
Bibliothèque Arcey,5 Rue de la Neuvelle,25750,ARCEY,25022,Arcey,CC des Deux Vallées Vertes,5 Rue de la Neuvelle 25750 ARCEY,biblioth_que,,,03 81 91 47 18,bibliothèque.arcey@orange.fr,https://arcey.fr/vivez-votre-village/mediatheque/,,acces_libre-,47.520623,6.660886,5 Rue de la Neuvelle,5 Rue de la Neuvelle 25750 Arcey,Arcey,25750
Bibliothèque Baume les Dames,1 Place de la Loi,25110,BAUME LES DAMES,25047,Baume-les-Dames,CC du Doubs Baumois,1 Place de la Loi 25110 BAUME LES DAMES,biblioth_que,,,03 81 51 60 79,mediatheque@baumelesdames.org,https://mediatheque.baume-les-dames.org/,,acces_libre-,47.35167,6.3612,1 Place de la Loi,1 Place de la Loi 25110 Baume-les-Dames,Baume-les-Dames,25110
Bibliothèque Bouclans,5 Rue de la Mairie,25360,BOUCLANS,25078,Bouclans,CC des Portes du Haut-Doubs,5 Rue de la Mairie 25360 BOUCLANS,biblioth_que,,,03 81 55 20 19,mediatheque@bouclans.fr,,,acces_libre-,47.248309,6.236917,5 Rue de la Mairie,5 Rue de la Mairie 25360 Bouclans,Bouclans,25360
Bibliothèque Chatillon le Duc,3 rue de la Dame Blanche,25870,CHATILLON LE DUC,25133,Chatillon-le-Duc,CA du Grand Besancon,3 rue de la Dame Blanche 25870 CHATILLON LE DUC,biblioth_que,,,03 81 58 61 66,mediatheque.chatillon-le-duc@laposte.net,http://www.chatillon-le-duc.fr/page/culture-et-association/le-du-doubs-service-du-conseil-departemental,,acces_libre-,47.305298,6.008981,3 Rue de la Dame Blanche,3 Rue de la Dame Blanche 25870 Châtillon-le-Duc,Châtillon-le-Duc,25870
Bibliothèque Chemaudin et Vaux,4 allée denis arnoux,25770,CHEMAUDIN ET VAUX,25147,Chemaudin et Vaux,CA du Grand Besancon,4 allée denis arnoux 25770 CHEMAUDIN ET VAUX,biblioth_que,,,03 81 58 40 47,bibliotheque-chemaudin@orange.fr,https://www.chemaudin.fr/services/mediatheque-chemaudin/,,acces_libre-,47.234154,5.88757,4 Chemin de Ronde,4 Chemin de Ronde 25770 Chemaudin et Vaux,Chemaudin et Vaux,25770
Bibliothèque colombier,14 Rue du Stade,25260,COLOMBIER FONTAINE,25159,Colombier-Fontaine,CA Pays de Montbéliard Agglomération,14 Rue du Stade 25260 COLOMBIER FONTAINE,biblioth_que,,,03 81 93 71 87,bibcolombier@wanadoo.fr,https://www.colombierfontaine.fr/bibliotheque-166.html,,acces_libre-,47.45099,6.687441,Rue du Stade,Rue du Stade 25260 Colombier-Fontaine,Colombier-Fontaine,25260
Bibliothèque Dampierre les bois,Rue de la place,25490,DAMPIERRE LES BOIS,25190,Dampierre-les-Bois,CA Pays de Montbéliard Agglomération,Rue de la place 25490 DAMPIERRE LES BOIS,biblioth_que,,,03 81 93 24 46,bib25490@laposte.net,https://www.dampierrelesbois.fr/activites/le-foyer-des-jeunes/bibliotheque/,,acces_libre-,47.507909,6.912749,Rue de la Place,Rue de la Place 25490 Dampierre-les-Bois,Dampierre-les-Bois,25490
Bibliothèque Devecey,2 Route de Bonnay,25870,DEVECEY,25200,Devecey,CA du Grand Besancon,2 Route de Bonnay 25870 DEVECEY,biblioth_que,,,03 81 56 83 63,mediatheque.devecey@wanadoo.fr,https://devecey.fr/fr/rb/270454/mediatheque-12,,acces_libre-,47.327307,6.0105,2 Route de Bonnay,2 Route de Bonnay 25870 Devecey,Devecey,25870
Bibliothèque Ecole Valentin,2 Rue de Franche-Comté,25480,ECOLE VALENTIN,25212,Ecole-Valentin,CA du Grand Besancon,2 Rue de Franche-Comté 25480 ECOLE VALENTIN,biblioth_que,,,03 81 51 48 35,mediatheque@ecole-valentin.fr,http://www.ecole-valentin.fr/page/vivre-a-ecole-valentin/vie-pratique/mediatheque,,acces_libre-,47.276204,5.991137,2 Rue de Franche-comté,2 Rue de Franche-comté 25480 École-Valentin,École-Valentin,25480
Bibliothèque Etalans,Espace Douge,25580,ETALANS,25222,Etalans,CC des Portes du Haut-Doubs,Espace Douge 25580 ETALANS,biblioth_que,,,03 81 59 31 36,bibliotheque.etalans@hotmail.fr,https://sequoia.doubs.fr/bibliotheque/etalans,,acces_libre-,47.148411,6.279495,Rue de Rougeu,Rue de Rougeu 25580 Étalans,Étalans,25580
Bibliothèque Frasne,3 Rue de la Gare,25560,FRASNE,25259,Frasne,CC du Plateau de Frasne et du Val de Drugeon (CFD),3 Rue de la Gare 25560 FRASNE,biblioth_que,,2 ordinateurs + Cours informatiques (séniors ou 8-12 ans) proposés avec des associations partenaires,03 81 38 32 93,mediatheque@frasnedrugeon-cfd.fr,https://www.frasnedrugeon-cfd.fr/les-equipements-et-services-a-la-population/mediatheque-intercommunale/,ateliers_formations-,adapt_handicap-acces_libre-,46.856953,6.161394,3 Rue de la Gare,3 Rue de la Gare 25560 Frasne,Frasne,25560
Bibliothèque Hérimoncourt,5 Rue Pierre Peugeot,25310,HERIMONCOURT,25304,Hérimoncourt,CA Pays de Montbéliard Agglomération,5 Rue Pierre Peugeot 25310 HERIMONCOURT,biblioth_que,,Imprimer et scanner les documents  accès internet CAF  CPAM,03 81 35 78 10,bibliotheque.herimoncourt@orange.fr,https://sequoia.doubs.fr/bibliotheque/herimoncourt,ateliers_formations-,acces_libre-,47.442506,6.883728,5 Rue Pierre Peugeot,5 Rue Pierre Peugeot 25310 Hérimoncourt,Hérimoncourt,25310
Bibliothèque La Cluse et Mijoux,15 Le Frambourg,25300,LA CLUSE ET MIJOUX,25157,La Cluse-et-Mijoux,CC du Grand Pontarlier,15 Le Frambourg 25300 LA CLUSE ET MIJOUX,biblioth_que,,,03 81 69 48 60,bib.lacluseetmijoux@wanadoo.fr,https://sequoia.doubs.fr/bibliotheque/la-cluse-et-mijoux,,acces_libre-,46.871592,6.378838,15 Le Frambourg,15 Le Frambourg 25300 La Cluse-et-Mijoux,La Cluse-et-Mijoux,25300
Bibliothèque Le Russey,5 Place Parrenin,25210,LE RUSSEY,25512,Le Russey,CC du Plateau de Russey,5 Place Parrenin 25210 LE RUSSEY,biblioth_que,,,03 81 43 89 64,bibliotheque-de-le-russey@wanadoo.fr,https://sequoia.doubs.fr/bibliotheque/le-russey,,acces_libre-,47.162401,6.729225,5 Place Dominique Parrenin,5 Place Dominique Parrenin 25210 Le Russey,Le Russey,25210
Bibliothèque Les Auxons,4 Rue de la Mairie,25870,LES AUXONS,25035,Les Auxons,CA du Grand Besancon,4 Rue de la Mairie 25870 LES AUXONS,biblioth_que,,,03 81 58 74 97,bibliotheque-lesauxons@orange.fr,https://www.lesauxons.fr/bibliotheque-ludotheque,,acces_libre-,47.298847,5.949725,4 Rue de la Mairie,4 Rue de la Mairie 25870 Les Auxons,Les Auxons,25870
Bibliothèque Levier,Place Bugnet,25270,LEVIER,25334,Levier,CC Altitude 800,Place Bugnet 25270 LEVIER,biblioth_que,,,03 81.89 58 73,bibliotheque.levier@wanadoo.fr,https://levier.fr/fr/rb/335922/bibliotheque-29,,acces_libre-,46.95392,6.116794,Place Bugnet,Place Bugnet 25270 Levier,Levier,25270
Bibliothèque Maiche,Chemin de la Canissière,25210,MAICHE,25356,Maîche,CC du Pays de Maîche,Chemin de la Canissière 25210 MAICHE,biblioth_que,,,03 81 64 18 61,bibliotheque@mairie-maiche.fr,http://maiche.bibenligne.fr/,,acces_libre-,47.250961,6.795949,Chemin de la Canissiere,Chemin de la Canissiere 25120 Maîche,Maîche,25120
Bibliothèque Malbuisson,52 Grande Rue,25160,MALBUISSON,25361,Malbuisson,CC des Lacs et Montagnes du Haut-Doubs,52 Grande Rue 25160 MALBUISSON,biblioth_que,,,03 81 39 12 51,bibliotheque.malbuisson@orange.fr,https://sequoia.doubs.fr/bibliotheque/malbuisson,,acces_libre-,46.799189,6.304431,52 Grande Rue,52 Grande Rue 25160 Malbuisson,Malbuisson,25160
Bibliothèque Mamirolle,3 Rue du Commerce,25620,MAMIROLLE,25364,Mamirolle,CA du Grand Besancon,3 Rue du Commerce 25620 MAMIROLLE,biblioth_que,,,03 81 52 63 82,bibliotheque.mamirolle@gmail.com,https://bibliotheque-mamirolle.fr/,,acces_libre-,47.197796,6.15719,3 Rue du Commerce,3 Rue du Commerce 25620 Mamirolle,Mamirolle,25620
Bibliothèque Mandeure,Rue des Ecoles,25350,MANDEURE,25367,Mandeure,CA Pays de Montbéliard Agglomération,Rue des Ecoles 25350 MANDEURE,biblioth_que,,,03 81 30 53 49,mediathequelebelieu@gmail.com,https://mediathequemandeure.fr/,,acces_libre-,47.446734,6.834778,Rue des Ecoles,Rue des Ecoles 25350 Mandeure,Mandeure,25350
Bibliothèque Miserey Salines,3 Rue de l'Ancien Couvent,25480,MISEREY SALINES,25381,Miserey-Salines,CA du Grand Besancon,3 Rue de l'Ancien Couvent 25480 MISEREY SALINES,biblioth_que,,,03 81 57 61 82,bibliothèque@ascms.fr,https://www.bibliotheque-de-miserey-salines.fr/,,acces_libre-,47.287084,5.972786,3 Rue de l'Ancien Couvent,3 Rue de l'Ancien Couvent 25480 Miserey-Salines,Miserey-Salines,25480
Bibliothèque Novillars,Place du 8 Mai 1945,25220,NOVILLARS,25429,Novillars,CA du Grand Besancon,Place du 8 Mai 1945 25220 NOVILLARS,biblioth_que,,,03 81 25 16 77,mediatheque.novillars@laposte.net,https://sequoia.doubs.fr/bibliotheque/novillars,,acces_libre-,47.285422,6.133799,place du 8 mai,place du 8 mai 25220 Novillars,Novillars,25220
Bibliothèque Ornans,26 Rue Saint-Laurent,25290,ORNANS,25434,Ornans,CC Loue-Lison,26 Rue Saint-Laurent 25290 ORNANS,biblioth_que,,,03 81 62 13 52,contact@mediathequeornans.fr,https://www.mediathequeornans.fr/,,acces_libre-,47.105715,6.146033,26 Rue Saint Laurent,26 Rue Saint Laurent 25290 Ornans,Ornans,25290
Bibliothèque Oye-et-Pallet,21 Rue des écoles,25160,OYE ET PALLET,25442,Oye-et-Pallet,CC des Lacs et Montagnes du Haut-Doubs,21 Rue des écoles 25160 OYE ET PALLET,biblioth_que,,,03 81.89 46 86,bibliothequeoyeetpallet@gmail.com,https://www.cclmhd.fr/commune/oye-et-pallet/?page=bibliotheque,,acces_libre-,46.855111,6.334816,21 Rue des Ecoles,21 Rue des Ecoles 25160 Oye-et-Pallet,Oye-et-Pallet,25160
Bibliothèque Pouilley les Vignes,2 rue de l'école,25115,POUILLEY LES VIGNES,25467,Pouilley-les-Vignes,CA du Grand Besancon,2 rue de l'école 25115 POUILLEY LES VIGNES,biblioth_que,,,03 81 55 49 05,bibliotheque.pouilley@orange.fr,https://www.pouilleylesvignes.com/mediatheques/17578,,acces_libre-,47.255983,5.936968,2 Rue de l'Ecole,2 Rue de l'Ecole 25115 Pouilley-les-Vignes,Pouilley-les-Vignes,25115
Bibliothèque Roulans,Place Du Souvenir Français  Grande Rue,25640,ROULANS,25508,Roulans,CC du Doubs Baumois,Place Du Souvenir Français  Grande Rue 25640 ROULANS,biblioth_que,,,03 81 55 04 23,bibliotheque.municipale-roulans@orange.fr,http://www.roulans.fr/spip/spip.php?article34,,acces_libre-,47.261564,6.018799,Place du Souvenir Français,Place du Souvenir Français 25000 Besançon,Besançon,25000
Bibliothèque Sancey,1 rue Joseph Montravers,25430,SANCEY,25529,Sancey,CC du Pays de Sancey-Belleherbe,1 rue Joseph Montravers 25430 SANCEY,biblioth_que,,,03 81 86 34 59,bibliotheque.sancey@wanadoo.fr,http://www.payssancey-belleherbe.fr/bibliotheques-et-mediatheque.html,,acces_libre-,47.293849,6.582793,1 Rue Joseph Montravers,1 Rue Joseph Montravers 25430 Sancey,Sancey,25430
Bibliothèque Seloncourt,72 rue du Général Leclerc,25230,SELONCOURT,25539,Seloncourt,CA Pays de Montbéliard Agglomération,72 rue du Général Leclerc 25230 SELONCOURT,biblioth_que,,,03 81 36 13 47,mediatheque@mairie-seloncourt.fr,https://mediatheque-seloncourt.fr/,,acces_libre-,47.460281,6.86348,72 Rue du Général Leclerc,72 Rue du Général Leclerc 25230 Seloncourt,Seloncourt,25230
Bibliothèque Thise,8 Rue de Besançon,25220,THISE,25560,Thise,CA du Grand Besancon,8 Rue de Besançon 25220 THISE,biblioth_que,,,03 81 61 01 84,bibliotheque@ville-thise.fr,https://bibliotheque.ville-thise.fr/,,acces_libre-,47.283458,6.079403,8 Rue de Besançon,8 Rue de Besançon 25220 Thise,Thise,25220
Bibliothèque Valdahon,5 Rue du Lavoir,25800,VALDAHON,25578,Valdahon,CC des Portes du Haut-Doubs,5 Rue du Lavoir 25800 VALDAHON,biblioth_que,,,03 81 26 04 12,bm@valdahon.com,http://services.valdahon.com:8080/,,acces_libre-,47.148461,6.343475,5 Rue du Lavoir,5 Rue du Lavoir 25800 Valdahon,Valdahon,25800
Bibliothèque Vieux-charmont,39 rue Belfort,25600,VIEUX CHARMONT,25614,Vieux-Charmont,CA Pays de Montbéliard Agglomération,39 rue Belfort 25600 VIEUX CHARMONT,biblioth_que,,,03 81 32 38 00,bib.vieuxcharmont@free.fr,http://www.vieux-charmont.fr/index.php?id=5076,,acces_libre-,47.52446,6.839481,39 Rue de Belfort,39 Rue de Belfort 25600 Vieux-Charmont,Vieux-Charmont,25600
Bibliothèque Voujeaucourt,6 Rue du 152 ème Ri,25420,VOUJEAUCOURT,25632,Voujeaucourt,CA Pays de Montbéliard Agglomération,6 Rue du 152 ème Ri 25420 VOUJEAUCOURT,biblioth_que,,,03 81 90 07 96,mediatheque@voujeaucourt.fr,https://voujeaucourt.bibenligne.fr/,,acces_libre-,47.476058,6.774656,6 Rue du 152e Ri,6 Rue du 152e Ri 25420 Voujeaucourt,Voujeaucourt,25420
Bibliothèque Les Fourgs,2 Rue de la Distillerie,25300,LES FOURGS,25300,Les Fourgs,CC  des Lacs et Montagnes du Haut-Doubs,2 Rue de la Distillerie 25300 LES FOURGS,biblioth_que,,Poste informatique mis à disposition du public,03 81 69 59 07,bibliotheque.lesfourgs@orange.fr,https://sequoia.doubs.fr/bibliotheque/les-fourgs,,adapt_handicap-acces_libre-,46.833358,6.399,Rue de la Distillerie,Rue de la Distillerie 25300 Les Fourgs,Les Fourgs,25300
Office de tourisme,36 Grande Rue,25300,LES FOURGS,25300,Les Fourgs,CC  des Lacs et Montagnes du Haut-Doubs,36 Grande Rue 25300 LES FOURGS,collectivite,,Accès wifi gratuit  impression et scan de documents,03 81 69 44 91,lesfourgs@destination-hautdoubs.com,https://www.les-fourgs.com/,,adapt_handicap-acces_libre-acces_payant-,46.835377,6.400046,36 Grande Rue,36 Grande Rue 25300 Les Fourgs,Les Fourgs,25300
Mairie Les Fourgs,40 Grande Rue,25300,LES FOURGS,25300,Les Fourgs,CC  des Lacs et Montagnes du Haut-Doubs,40 Grande Rue 25300 LES FOURGS,collectivite,,Photocopie  impression et scan de documents,03 81 69 42 26,mairie.lesfourgs@orange.fr,https://www.cclmhd.fr/commune/les-fourgs/,,adapt_handicap-acces_libre-acces_payant-,46.834985,6.400595,40 Grande Rue,40 Grande Rue 25300 Les Fourgs,Les Fourgs,25300
Maison pour tous,10 rue Carnot,25700,VALENTIGNEY,25580,Valentigney,CA Pays de Montbéliard Agglomération,10 rue Carnot 25700 VALENTIGNEY,association,,,06 25 93 27 67,maison-pour-tous1@orange.fr,https://www.mptval.fr/,ateliers_formations-,,47.462348,6.836721,10 Rue Carnot,10 Rue Carnot 25700 Valentigney,Valentigney,25700
Cours Privés Mme Ragot,17 Avenue de Lattre de Tassigny,25210,LE RUSSEY,25512,Le Russey,CC du Plateau de Russey,17 Avenue de Lattre de Tassigny 25210 LE RUSSEY,collectivite,,Cours informatiques de 2h30 : Tout public  apprentissage des bases et mise à jour Réalisés par Mme MC Ragot (microentreprise),03 81 43 81 26,,http://www.cc-russey.fr/,ateliers_formations-,adapt_handicap-,47.161913,6.727567,17 Av du Mal de Lattre de Tassigny,17 Av du Mal de Lattre de Tassigny 25210 Le Russey,Le Russey,25210
Horizon 21,29 Rue des Tilleuls,25450,DAMPRICHARD,25193,Damprichard,CC du Pays de Maîche,29 Rue des Tilleuls 25450 DAMPRICHARD,association,,Formations en groupe,06 07 29 16 90,horizonxxi@sfr.fr,,ateliers_formations-,adapt_handicap-,47.249223,6.883826,29 Rue des Tilleuls,29 Rue des Tilleuls 25450 Damprichard,Damprichard,25450
Association Makey Makey en lien avec la Médiathèque,Médiathèque Intercommunale Frasne-Drugeon,25560,FRASNE,25259,Frasne,CC du Plateau de Frasne et du Val de Drugeon (CFD),Médiathèque Intercommunale Frasne-Drugeon 25560 FRASNE,association,,,,mediatheque@frasnedrugeon-cfd.fr,https://www.frasnedrugeon-cfd.fr/les-equipements-et-services-a-la-population/mediatheque-intercommunale/,ateliers_formations-,,46.852325,6.147725,Rue du General de Gaulle,Rue du General de Gaulle 25560 Frasne,Frasne,25560
Association Familles Rurales,14 Rue de la Gare,25560,FRASNE,25259,Frasne,CC du Plateau de Frasne et du Val de Drugeon (CFD),14 Rue de la Gare 25560 FRASNE,association,,,03 81 89 85 07,asso.brimbelles@famillesrurales.org,,ateliers_formations-,,46.857301,6.159514,14 Rue de la Gare,14 Rue de la Gare 25560 Frasne,Frasne,25560
Jougne club informatique,,25370,JOUGNE,25318,Jougne,CC des Lacs et Montagnes du Haut-Doubs,25370 JOUGNE,association,,Découverte de l’informatique pour tout public sur des cours de 2h,,,,ateliers_formations-,adapt_handicap-,46.751799,6.38449,Jougne,Jougne,Jougne,25370
Centre social de Valentigney,14 bis Rue Gustave Courbet,25700,VALENTIGNEY,25580,Valentigney,CA Pays de Montbéliard Agglomération,14 bis Rue Gustave Courbet 25700 VALENTIGNEY,collectivite,,- Accompagnement des démarches CAF  pole emploi MSA pour agriculteurs  demande de logement et de bourses  - Dispense de cours d'informatique  - Café connecté - Accompagnement proposé dans le cadre de l'atelier d'alphabétisation - Accompagnement des parents dans l'utilisation des tablettes numériques : suivi de la scolarité  Service Pronote (A partir de septembre 2021),06 09 89 18 40,centresocial25700@csvalentigney.org,https://www.csvalentigney.org/,accomp_demarches-ateliers_formations-,adapt_handicap-,47.478311,6.830645,14bis Rue Gustave Courbet,14bis Rue Gustave Courbet 25700 Valentigney,Valentigney,25700
Espace numérique Clerval,Place de l'Hôtel-de-Ville,25340,CLERVAL,25340,Clerval,CC des Deux Vallées Vertes,Place de l'Hôtel-de-Ville 25340 CLERVAL,collectivite,,Apprentissage de l'outil informatique avec accompagnement,,,,accomp_demarches-,,47.39348,6.497182,Place de l’Hotel de Ville,Place de l’Hotel de Ville 25340 Pays-de-Clerval,Pays-de-Clerval,25340
Communauté de communes des deux vallées vertes,11 Bis Route de Gouhelans,25680,ROUGEMONT,25680,Rougemont,CC des Deux Vallées Vertes,11 Bis Route de Gouhelans 25680 ROUGEMONT,collectivite,,Connexion internet avec accompagnement aux droits numériques,03 81 97 85 10,contact@cc2vv.fr,http://www.cc2vv.fr/,accomp_demarches-,acces_libre-,47.476624,6.358107,11b Route de Gouhelans,11b Route de Gouhelans 25680 Rougemont,Rougemont,25680
Maison des jeunes de Mandeure,Rue de l’église,25350,MANDEURE,25350,Mandeure,CA Pays de Montbéliard Agglomération,Rue de l’église 25350 MANDEURE,collectivite,,Apprentissage de l'outil informatique Initiation à l'informatique : écrire un document  comment aller sur le site de la Caf  Cpam  Impôts et Ameli (personnes âgées),03 81 36 11 67,mireille.generet@gmail.com,,ateliers_formations-,,47.453608,6.806083,Rue de l'Eglise,Rue de l'Eglise 25350 Mandeure,Mandeure,25350
CCAS Hérimoncourt,5 B rue Pierre Peugeot,25310,HERIMONCOURT,25304,Hérimoncourt,CA Pays de Montbéliard Agglomération,5 B rue Pierre Peugeot 25310 HERIMONCOURT,ccas,,Connexion internet avec accompagnement aux droits numériques,03 81 30 83 77,ccas.herimoncourt@wanadoo.fr,,accomp_demarches-,acces_libre-,47.442186,6.883117,5b Rue Pierre Peugeot,5b Rue Pierre Peugeot 25310 Hérimoncourt,Hérimoncourt,25310
CCAS de Mandeure,34 rue de la Libération,25350,MANDEURE,25367,Mandeure,CA Pays de Montbéliard Agglomération,34 rue de la Libération 25350 MANDEURE,ccas,,Création adresse mail  ouverture des droits  CAF  CPAM  Impôts,03 81 36 28 85,,https://www.ville-mandeure.com/services/ccas,accomp_demarches-,,47.450932,6.80982,34 Rue de la Libération,34 Rue de la Libération 25350 Mandeure,Mandeure,25350
CCAS de Seloncourt,Place du 8 Mai 1945 BP 9,25230,SELONCOURT,25539,Seloncourt,CA Pays de Montbéliard Agglomération,Place du 8 Mai 1945 BP 9 25230 SELONCOURT,ccas,,Aides au numérique,03 81 34 11 31,,https://seloncourt.fr/-c-c-a-s-,accomp_demarches-,,47.461727,6.859329,Place du 8 Mai,Place du 8 Mai 25230 Seloncourt,Seloncourt,25230
Pôle Multi-services,14 bis Rue Gustave Courbet,25700,VALENTIGNEY,25580,Valentigney,CA Pays de Montbéliard Agglomération,14 bis Rue Gustave Courbet 25700 VALENTIGNEY,association,,- Apprentissage informatique  aides dans les recherches Web  matériels avec connection - Premier accueil  accompagnement dans les démarches avec connection internet - Recherche d'emploi (public jeune) - Accompagnement des parents dans l'utilisation des tablettes numériques : suivi de la scolarité  Service Pronote (à partir de septembre 2021),03 81 36  12 81,centresocialvalentigney@yahoo.com,,accomp_demarches-ateliers_formations-,acces_libre-,47.478311,6.830645,14bis Rue Gustave Courbet,14bis Rue Gustave Courbet 25700 Valentigney,Valentigney,25700
Maison des associations,12 rue des écoles à Valentigney.,25700,VALENTIGNEY,25580,Valentigney,CA Pays de Montbéliard Agglomération,12 rue des écoles à Valentigney. 25700 VALENTIGNEY,association,,Apprentissage informatique  aides dans les recherches Web  matériels avec connection,03 81 36 12 81,centresocial25700@csvalentigney.org,https://www.csvalentigney.org/,ateliers_formations-,acces_libre-,47.459687,6.832892,Rue des Ecoles,Rue des Ecoles 25700 Valentigney,Valentigney,25700
Commune de Bondeval,Rue de l'Église,25230,BONDEVAL,25071,Bondeval,CA Pays de Montbéliard Agglomération,Rue de l'Église 25230 BONDEVAL,collectivite,,Formation à l'utilisation du numérique avec une tablette (en projet) Apprentissage de l'outil informatique sur tablette  envoi de mail  navigation sur les sites administratifs (en projet),03 81 34 17 77,mairie.bondeval@wanadoo.fr,,ateliers_formations-,acces_payant-,47.444267,6.849751,Rue de l’Eglise,Rue de l’Eglise 25230 Bondeval,Bondeval,25230
Idéis Montbéliard,Centre Des Alliés  2 Av. des Alliés,25200,MONTBÉLIARD,25388,Montbéliard,CA Pays de Montbéliard Agglomération,Centre Des Alliés  2 Av. des Alliés 25200 MONTBÉLIARD,collectivite,,Validation du Cléa numérique (septembre 2021),03 81 71 04 00,accueil@ideis-asso.fr,https://www.ideis-asso.fr/,ateliers_formations-,,47.510877,6.800633,2 Avenue des Alliés,2 Avenue des Alliés 25200 Montbéliard,Montbéliard,25200
CCAS Grand Charmont,21 rue du Stade,25200,GRAND-CHARMONT,25284,Grand-Charmont,CA Pays de Montbéliard Agglomération,21 rue du Stade 25200 GRAND-CHARMONT,ccas,,Ateliers numériques,03 81 31 09 29,ccas@grand-charmont.com,http://www.grand-charmont.com/solidarite/presentation-ccas.htm,ateliers_formations-,,47.529016,6.818808,21 Rue du Stade,21 Rue du Stade 25200 Grand-Charmont,Grand-Charmont,25200
CCAS Sochaux,Rue de l'hôtel de ville,25600,SOCHAUX,25547,Sochaux,CA Pays de Montbéliard Agglomération,Rue de l'hôtel de ville 25600 SOCHAUX,ccas,,- Impôts  ameli  CAF  CPAM avec avec accompagnement  accès internet - Formation à l'utilisation de l'outil numérique (public senior),03 81 94 16 34,,,accomp_demarches-,acces_libre-,47.513239,6.829738,Rue de l’Hôtel de Ville,Rue de l’Hôtel de Ville 25600 Sochaux,Sochaux,25600
Centres sociaux d'Audincourt,Rue Aimé Césaire,25400,AUDINCOURT,25031,Audincourt,CA Pays de Montbéliard Agglomération,Rue Aimé Césaire 25400 AUDINCOURT,association,,- Accompagnement à l'outil informatique - Accompagnement aux démarches en ligne,03 81 35 03 64,centre.social.audincourt@gmail.com,https://www.centresocialescapade.fr/,accomp_demarches-ateliers_formations-,,47.484579,6.840106,Rue Aime Cesaire,Rue Aime Cesaire 25400 Audincourt,Audincourt,25400
Centre social d'Etupes,Place du 14 juillet,25460,ETUPES,25460,Etupe,CA Pays de Montbéliard Agglomération,Place du 14 juillet 25460 ETUPES,collectivite,,Initiation et perfectionnement à l'outil informatique (à partir du 6 novembre 2021),03 81 99 61 00,,https://www.etupes.fr/vivez-votre-ville/solidarite-et-sante/ccas-d-etupes/joomlannuaire/fiche/46-centre-communal-d-action-sociale,ateliers_formations-,,47.504547,6.85506,Place du 14 Juillet,Place du 14 Juillet 25460 Étupes,Étupes,25460
MJC Morteau,2 Place de l'Église,25500,MORTEAU,25411,Morteau,CC du Val de Morteau,2 Place de l'Église 25500 MORTEAU,association,,Ordinateurs en libre service + 4 personnes dédiées à l’accompagnement dont une de la CAF  une du CCAS. Accompagnement sur les démarches administratives,03 81 67 04 25,contact@mjcmorteau.com,http://mjcmorteau.com/,accomp_demarches-,adapt_handicap-acces_libre-,47.055371,6.599214,2 Place de l'Eglise,2 Place de l'Eglise 25500 Morteau,Morteau,25500
Club informatique de Goux les Usiers (infotuto),34 Grande Rue,25520,GOUX-LES-USIERS,25282,Goux-les-Usiers,CC Altitude 800,34 Grande Rue 25520 GOUX-LES-USIERS,association,,Association INFOTUTO : accompagnement à l'apprentissage numérique,06 73 03 40 19,lestuteursinformatiques@gmail.com,https://www.infotuto.org/page/1279749-l-association,ateliers_formations-,adapt_handicap-,46.973234,6.276257,34 Grande Rue,34 Grande Rue 25520 Goux-les-Usiers,Goux-les-Usiers,25520
Mairie de Hauterive la Fresse,18 Mont d'Hauterive,25650,HAUTERIVE-LA-FRESSE,25303,Hauterive-La-Fresse,CC de Montbenoît,18 Mont d'Hauterive 25650 HAUTERIVE-LA-FRESSE,collectivite,,Disponible pour aider à une première démarche via le secrétariat de Mairie.,03 81 38 12 76,mairie@hauterive-la-fresse.fr,http://www.hauterive-la-fresse.fr/,accomp_demarches-,adapt_handicap-,46.96746,6.44806,18 le Mont d'Hauterive,18 le Mont d'Hauterive 25650 Hauterive-la-Fresse,Hauterive-la-Fresse,25650
Mairie de Doubs,6 Grande Rue,25300,DOUBS,25204,Doubs,CC du Grand Pontarlier,6 Grande Rue 25300 DOUBS,collectivite,,Projet d'assistance numérique aux démarches administratives,03 81 46 51 40,mairiedoubs@wanadoo.fr,https://www.commune-de-doubs.fr/,accomp_demarches-,adapt_handicap-,46.927768,6.350167,6 Grande Rue,6 Grande Rue 25300 Doubs,Doubs,25300
Maire de Noël Cerneux,10 Rue de l'Abbé Saunier,25500,NOËL-CERNEUX,25425,Noël-Cerneux,CC du Plateau de Russey,10 Rue de l'Abbé Saunier 25500 NOËL-CERNEUX,collectivite,,Premier accueil démarches administratives,03 81 67 01 75,mairie.noelcerneux@orange.fr,http://www.cc-russey.fr/fr/territoire/191/noel-cerneux,accomp_demarches-,adapt_handicap-,47.100534,6.664624,10 Rue de l’Abbe Saunier,10 Rue de l’Abbe Saunier 25500 Noël-Cerneux,Noël-Cerneux,25500
France services Morteau,4 place de la Halle,25500,MORTEAU,25411,Morteau,CC du Val de Morteau,4 place de la Halle 25500 MORTEAU,msap_mfs,,3 ordinateurs en libre service,03 81 68 56 96,franceservices@morteau.org,https://www.morteau.org/vos-services/espace-france-services/,accomp_demarches-,adapt_handicap-acces_libre-,47.056671,6.603771,Place de la Halle,Place de la Halle 25500 Morteau,Morteau,25500
Mairie de Mont Laval,3 rue du Chêne,25210,MONT DE LAVAL,25391,Mont de Laval,CC du Plateau de Russey,3 rue du Chêne 25210 MONT DE LAVAL,collectivite,,Photocopie  impression  de documents,03 81 68 93 04,mairie.montdelaval@orange.fr,https://montdelaval.fr/,,adapt_handicap-acces_libre-,47.170056,6.628479,3 Rue du Chene,3 Rue du Chene 25210 Mont-de-Laval,Mont-de-Laval,25210
Mairie de Ville du Pont,4 rue de la Fontaine,25620,VILLE DU PONT,25620,Ville du Pont,CC de Montbenoît,4 rue de la Fontaine 25620 VILLE DU PONT,collectivite,,Mise à disposition de matériel et accompagnement,03 81 38 10 06,mairie.villedupont@wanadoo.fr,,accomp_demarches-,adapt_handicap-acces_libre-,47.002862,6.477298,4 Rue de la Fontaine,4 Rue de la Fontaine 25650 Ville-du-Pont,Ville-du-Pont,25650
France services Maîche,24 Rue Montalembert,25120,MAICHE,25356,Maîche,CC du Pays de Maîche,24 Rue Montalembert 25120 MAICHE,msap_mfs,,Mise à disposition de matériel et accompagnement,03 81 64 17 06,contact@ccpm-maiche.com,,accomp_demarches-,adapt_handicap-acces_libre-,47.2522,6.803809,24 Rue Montalembert,24 Rue Montalembert 25120 Maîche,Maîche,25120
France services Saint Vit,3 place de la Mairie,25410,SAINT VIT,25527,Saint-Vit,CA du Grand Besancon,3 place de la Mairie 25410 SAINT VIT,msap_mfs,,Mise à disposition de matériel et accompagnement,03 81 87 40 46,france.services@saintvit.fr,,accomp_demarches-,adapt_handicap-acces_libre-,47.18088,5.809533,3 Place de la Mairie,3 Place de la Mairie 25410 Saint-Vit,Saint-Vit,25410
France services Le Russey,17 avenue de Lattre de Tassigny,25210,LE RUSSEY,25512,Le Russey,CC du Plateau de Russey,17 avenue de Lattre de Tassigny 25210 LE RUSSEY,msap_mfs,,,09 82 81 55 10,maisondesservicesdurussey@gmail.com,http://www.cc-russey.fr/fr/actualite/8375/espace-france-services,accomp_demarches-,,47.161913,6.727567,17 Av du Mal de Lattre de Tassigny,17 Av du Mal de Lattre de Tassigny 25210 Le Russey,Le Russey,25210
France Services Rougemont,4 place du marché,25680,ROUGEMONT,25680,Rougemont,CC des Deux Vallées Vertes,4 place du marché 25680 ROUGEMONT,msap_mfs,,,03 81 86 02 63,julie.boutin@cc2vv.fr,http://www.cc2vv.fr/etablissements-france-services.html,accomp_demarches-,,47.480046,6.354887,4 Place du Marché,4 Place du Marché 25680 Rougemont,Rougemont,25680
France Services Marchaux-Chaudefontaine,1 rue des écoles,25640,MARCHAUX-CHAUDEFONTAINE,25368,Marchaux-Chaudefontaine,CA du Grand Besancon,1 rue des écoles 25640 MARCHAUX-CHAUDEFONTAINE,msap_mfs,,,03 81 57 96 30,msap.marchaux@orange.fr,https://marchaux.fr/services-publics/,accomp_demarches-,,47.323515,6.134506,1 Rue des Ecoles,1 Rue des Ecoles 25640 Marchaux-Chaudefontaine,Marchaux-Chaudefontaine,25640
France services de Levier,10 place Bugnet,25270,LEVIER,25334,Levier,CC Altitude 800,10 place Bugnet 25270 LEVIER,msap_mfs,,,03 81 49 51 51,franceservices@cca800.fr,https://levier.fr/fr/nw/629891/605906/espace-france-services-3,,,46.953653,6.116531,10 Place Bugnet,10 Place Bugnet 25270 Levier,Levier,25270
52 battant,52 rue battant,25000,BESANCON,25056,Besançon,CA du Grand Besancon,52 rue battant 25000 BESANCON,association,,Espace de co-working,03 81 41 01 91,52@culture-action.org,http://www.culture-action.org/le-52/,tierslieux_cowork-,adapt_handicap-acces_payant-,47.24207,6.020767,52 Rue Battant,52 Rue Battant 25000 Besançon,Besançon,25000
CRIJ de Bourgogne-Franche-Comté,27 rue de la République,25000,BESANCON,25056,Besançon,CA du Grand Besancon,27 rue de la République 25000 BESANCON,association,,Information et accès aux droits,03 81 21 16 16,contact@jeunes-bfc.fr,https://www.jeunes-bfc.fr/,,,47.240218,6.027249,27 Rue de la République,27 Rue de la République 25000 Besançon,Besançon,25000
Cyberespace Léo Lagrange,4 rue des batteries du parc,25200,MONTBELIARD,25388,Montbéliard,CA Pays de Montbéliard Agglomération,4 rue des batteries du parc 25200 MONTBELIARD,association,,initiation individuelle et de groupes aux usages d'Internet et des outils numériques (travail collaboratif  e-formation  e-santé etc.),,,,ateliers_formations-,adapt_handicap-,47.518686,6.811344,4 Rue des Batteries du Parc,4 Rue des Batteries du Parc 25200 Montbéliard,Montbéliard,25200
Maison pour tous,2 Rue de la Fonderie,25230,SELONCOURT,25539,Seloncourt,CA Pays de Montbéliard Agglomération,2 Rue de la Fonderie 25230 SELONCOURT,association,,Initiation à l'utilisation d'Internet et des messageries,03 81 37 33 11,mpt.seloncourt@wanadoo.fr,http://www.mpt-seloncourt.fr/blog/index.php?post/2010/03/Maison-Pour-Tous-de-Seloncourt,ateliers_formations-,adapt_handicap-,47.461841,6.860526,2 Rue de la Fonderie,2 Rue de la Fonderie 25230 Seloncourt,Seloncourt,25230
Centre social de Grand Charmont,21 rue Pierre Curie,25200,GRAND-CHARMONT,25284,Grand-Charmont,CA Pays de Montbéliard Agglomération,21 rue Pierre Curie 25200 GRAND-CHARMONT,collectivite,,,03 81 32 02 47,,http://www.grand-charmont.com/solidarite/centre-social.htm,,,47.527826,6.822801,21 Rue Pierre Curie,21 Rue Pierre Curie 25200 Grand-Charmont,Grand-Charmont,25200
Médiathèque Espace Bruno MUTIN,18-20 rue du village,25370,METABIEF,25380,Metabief,CC des Lacs et Montagnes du Haut-Doubs,18-20 rue du village 25370 METABIEF,biblioth_que,,PC en libre service,09.62.62.90.52,mediatheque@metabief.fr,https://www.metabief.fr/index.php/culture-et-loisirs/mediatheque,accomp_demarches-ateliers_formations-tierslieux_cowork-,adapt_handicap-acces_libre-itinerance-acces_payant-,46.773313,6.349464,20 Rue du Village,20 Rue du Village 25370 Métabief,Métabief,25370
EPN de Grand-Charmont,5 rue de Sochaux,25200,Grand-Charmont,25284,Grand-Charmont,CA Pays de Montbéliard Agglomération,5 rue de Sochaux 25200 Grand-Charmont,espnum,,,03.81.32.19.17,,https://www.grand-charmont.com/solidarite/epn.htm,,,47.526409,6.826627,5 Rue de Sochaux,5 Rue de Sochaux 25200 Grand-Charmont,Grand-Charmont,25200
Centre social escapade,15 av. Maréchal Foch,25400,Audincourt,25031,Audincourt,CA Pays de Montbéliard Agglomération,15 av. Maréchal Foch 25400 Audincourt,espnum,,,,,https://www.audincourt.fr/?actualite=inauguration-du-tiers-lieu-la-maison-3d,,,47.488185,6.825094,15 Avenue du Marechal Foch,15 Avenue du Marechal Foch 25400 Audincourt,Audincourt,25400
Pavillon des sciences,3 rue Charles Lalance  Parc du Près-la-Rose,25200,Montbéliard,25388,Montbéliard,CA Pays de Montbéliard Agglomération,3 rue Charles Lalance  Parc du Près-la-Rose 25200 Montbéliard,espnum,,,,,https://www.pavillon-sciences.com/web/,,,47.506733,6.793538,Rue Charles Lalance,Rue Charles Lalance 25200 Montbéliard,Montbéliard,25200
Maison pour tous,41 Grande rue,25550,Bavans,25048,Bavans,CA Pays de Montbéliard Agglomération,41 Grande rue 25550 Bavans,espnum,,,03.81.92.64.25,Stephane.THOCKLER@agglo-montbeliard.fr,,,,47.480477,6.736854,41 Grande Rue,41 Grande Rue 25550 Bavans,Bavans,25550
Numerica,cours leprince Ringuet,25200,Montbéliard,25388,Montbéliard,CA Pays de Montbéliard Agglomération,cours leprince Ringuet 25200 Montbéliard,entreprise,,,,,https://numericabfc.com/,,,47.496067,6.805527,Cours Louis Leprince Ringuet,Cours Louis Leprince Ringuet 25200 Montbéliard,Montbéliard,25200
France Services Le Russey,17 Avenue Lattre de Tassigny,25210,LE RUSSEY,25512,Le Russey,CC du Plateau de Russey,17 Avenue Lattre de Tassigny 25210 LE RUSSEY,msap_mfs,1,Imprimante  photocopieuse  scanner  ordinateur avec accès internet Accès aux sites des opérateurs partenaires (CAF  CPAM  MSA  DDFIP  Pôle Emploi…),09 82 81 55 10,maisondesservicesdurrussey@gmail.com,https://www.cohesion-territoires.gouv.fr/france-services,accomp_demarches-ateliers_formations-tierslieux_cowork-,adapt_handicap-acces_libre-itinerance-acces_payant-,47.161913,6.727567,17 Av du Mal de Lattre de Tassigny,17 Av du Mal de Lattre de Tassigny 25210 Le Russey,Le Russey,25210
BIBLIOTHEQUE de LAVERNAY,Rue de la Grapille,25170,LAVERNAY,25332,Lavernay,CC du Val Marnaysien,Rue de la Grapille 25170 LAVERNAY,,,,03 81 58 15 25,mairie.lavernay@wanadoo.fr,,,,47.246415,5.818126,Rue de la Grapille,Rue de la Grapille 25170 Lavernay,Lavernay,25170
Club des 7 moulins (3ème age),Rue de la Grapille,25170,LAVERNAY,25332,Lavernay,CC du Val Marnaysien,Rue de la Grapille 25170 LAVERNAY,association,,,03 81 58 15 25,mairie.lavernay@wanadoo.fr,,,,47.246415,5.818126,Rue de la Grapille,Rue de la Grapille 25170 Lavernay,Lavernay,25170
Vire-Tamis,Rue de la Grapille,25170,LAVERNAY,25332,Lavernay,CC du Val Marnaysien,Rue de la Grapille 25170 LAVERNAY,association,,,03 81 58 15 25,mairie.lavernay@wanadoo.fr,,,,47.246415,5.818126,Rue de la Grapille,Rue de la Grapille 25170 Lavernay,Lavernay,25170
BIBLIOTHEQUE,3 place de l'église,25170,Moncley,25383,Moncley,CC du Val Marnaysien,3 place de l'église 25170 Moncley,,,,03 81 58 02 42,mairie.moncley@wandoo.fr,,,,47.310135,5.890748,3 Place de l'Eglise,3 Place de l'Eglise 25170 Moncley,Moncley,25170
CLUB 3EME AGE,5 rue de la neuvie,25170,Moncley,25383,Moncley,CC du Val Marnaysien,5 rue de la neuvie 25170 Moncley,association,,,03 81 55 02 25,furlanfufu@yahoo.fr,,,,47.310185,5.89154,5 Rue de la Neuvie,5 Rue de la Neuvie 25170 Moncley,Moncley,25170
SOUTIEN AUX PERSONNES AGEES,4 route d'emagny,25170,Moncley,25383,Moncley,CC du Val Marnaysien,4 route d'emagny 25170 Moncley,association,,,03 81 55 01 00,patrick.meutelet@gmail.com,,,,47.310782,5.891258,4 Route d'Emagny,4 Route d'Emagny 25170 Moncley,Moncley,25170
BIBLIOTHEQUE MUNICIPALE,10 Grande rue,25170,Jallerange,25317,Jallerange,CC du Val Marnaysien,10 Grande rue 25170 Jallerange,,,,03 81 58 23 82,mairie@jallerange.fr,,,,47.253216,5.716283,10 Grande Rue,10 Grande Rue 25170 Jallerange,Jallerange,25170
DETENTE ET LOISIRS,10 Grande rue,25170,Jallerange,25317,Jallerange,CC du Val Marnaysien,10 Grande rue 25170 Jallerange,association,,,03 81 58 23 82,adeljallerange@gmail.com,,,,47.253216,5.716283,10 Grande Rue,10 Grande Rue 25170 Jallerange,Jallerange,25170
club informatique Flor anim,2 rue des diligences,25170,EMAGNY,25217,Emagny,CC du Val Marnaysien,2 rue des diligences 25170 EMAGNY,association,,,,,,,,47.310469,5.868815,2 Rue des Diligences,2 Rue des Diligences 25170 Émagny,Émagny,25170
CLUB 3EME AGE,,70150,Marnay,70334,Marnay,CC du Val Marnaysien,70150 Marnay,association,,,03 81 58 11 52,,,,,47.294074,5.772888,Marnay,Marnay,Marnay,70150
Génération Mouvement,4 grande rue,70150,Tromarey,70509,Tromarey,CC du Val Marnaysien,4 grande rue 70150 Tromarey,association,,,03 84 31 53 53,,,,,47.337534,5.719237,4 Grande Rue,4 Grande Rue 70150 Tromarey,Tromarey,70150
Ludobibliothèque,2  rue Carnot,70150,Marnay,70334,Marnay,CC du Val Marnaysien,2  rue Carnot 70150 Marnay,collectivite,,,03 84 31 74 42,bibliomarnay70@gmail.com,,,,47.289523,5.771258,2 Rue Carnot,2 Rue Carnot 70150 Marnay,Marnay,70150
France services Ornans,32 Rue Jacques Gervais - BP 54,25290,Ornans,25434,Ornans,CC Loue-Lison,32 rue Jacques Gervais 25290 Ornans,msap_mfs,"Lundi, mardi et jeudi: 9h-12h30/ 13h30-18h Mercredi: 9h-12h Vendredi: 9h-12h30/ 13h30-16h Samedi, en semaine impaire: 9h-12h",Pas d'ateliers/formations Accueil avec ou sans rdv Gratuit Accompagnement aux démarches adminsitratives du quotidien,0370889670,ornans@france-service.gouv.fr,https://cclouelison.fr/fr/rb/417588/france-services-24,accomp_demarches,adapt_handicap-acces_libre-acces_payant,47.10291,6.152156,32 Rue Jacques Gervais,32 Rue Jacques Gervais 25290 Ornans,Ornans,25290
France services Amancey,13 rue du Four,25330,Amancey,25015,Amancey,CC Loue-Lison,13 rue du Four 25330 Amancey,msap_mfs,1,la Poste est aussi présente,03.70.88.50.10,contact@cclouelison.fr,https://cclouelison.fr/fr/,accomp_demarches-ateliers_formations-tierslieux_cowork-,adapt_handicap-acces_libre-itinerance-acces_payant-,47.037799,6.070477,13 Rue du Four,13 Rue du Four 25330 Amancey,Amancey,25330
France services Quingey,4 Lot. Les Rives de la Loue,25440,Quingey,25475,Quingey,CC Loue-Lison,4 Lot. Les Rives de la Loue 25440 Quingey,msap_mfs,1,,03.81..86.79.80,contact@cclouelison.fr,https://cclouelison.fr/fr/,accomp_demarches-ateliers_formations-,adapt_handicap-acces_libre-itinerance-acces_payant-,47.101956,5.882836,Lotissement les Rives de la Loue,Lotissement les Rives de la Loue 25440 Quingey,Quingey,25440
France Services Morteau,Place de l’Hôtel de ville,25500,MORTEAU,25411,Morteau,CC du Val de Morteau,Place de l’Hôtel de ville 25500 MORTEAU,msap_mfs,,,03 81 68 56 96,franceservices@morteau.org,https://www.morteau.org/vos-services/espace-france-services/,,,47.056602,6.604689,Place de l'Hotel de Ville,Place de l'Hotel de Ville 25500 Morteau,Morteau,25500
France Services Hérimoncourt,3 rue Pierre Peugeot,25310,HERIMONCOURT,25304,Hérimoncourt,CA Pays de Montbéliard Agglomération,3 rue Pierre Peugeot 25310 HERIMONCOURT,msap_mfs,,,09 62 69 61 15,france.services.25600@gmail.com,,,,47.442171,6.882181,3 Rue Pierre Peugeot,3 Rue Pierre Peugeot 25310 Hérimoncourt,Hérimoncourt,25310
France Services Saône,26 rue de la mairie,25660,SAONE,25532,Saône,CA du Grand Besancon,26 rue de la mairie 25660 SAONE,msap_mfs,,,,,https://www.saone.fr/index.php/marches-publics,,,47.22504,6.117091,26 Rue de la Mairie,26 Rue de la Mairie 25660 Saône,Saône,25660
France Services Montenois,4 Place Toussaint Louverture,25260,MONTENOIS,25394,Montenois,CA Pays de Montbéliard Agglomération,4 Place Toussaint Louverture 25260 MONTENOIS,msap_mfs,,,03 81 36 52 03,france.services.montbeliard@gmail.com,,,,47.491888,6.665429,4 Place Toussaint Louverture,4 Place Toussaint Louverture 25260 Montenois,Montenois,25260
France Services Fesches le Châtel,1 rue François Mitterand,25490,FESCHES LE CHATEL,25512,Fesches-le-Châtel,CA Pays de Montbéliard Agglomération,1 rue François Mitterand 25490 FESCHES LE CHATEL,msap_mfs,,,09 62 69 61 15,france.services.25600@gmail.com,,,,47.522481,6.912569,1 Rue Francois Mitterrand,1 Rue Francois Mitterrand 25490 Fesches-le-Châtel,Fesches-le-Châtel,25490
CIAS Loue Lison,2 sites : FS Ornans et FS Quingey,25290,ORNANS,25434,Ornans,CC Loue-Lison,2 sites : FS Ornans et FS Quingey 25290 ORNANS,ccas,1,,03.81.62.20.19,contact@cclouelison.fr,https://cclouelison.fr/fr/,accomp_demarches-,adapt_handicap-acces_libre-itinerance-acces_payant-,47.101697,5.886695,2 Route d'Ornans,2 Route d'Ornans 25440 Quingey,Quingey,25440
Bibliothèque Amancey (Bib'All),13 rue du Four,25330,Amancey,25015,Amancey,CC Loue-Lison,13 rue du Four 25330 Amancey,collectivite,1,,03.81.86.75.72,contact@cclouelison.fr,https://cclouelison.fr/fr/,accomp_demarches-ateliers_formations-,adapt_handicap-acces_libre-itinerance-acces_payant-,47.037799,6.070477,13 Rue du Four,13 Rue du Four 25330 Amancey,Amancey,25330
Maison France Service,,25110,BAUME LES DAMES,25047,Baume-les-Dames,CC du Doubs Baumois,25110 BAUME LES DAMES,msap_mfs,,,03 81 84 72 45,franceservices@baumelesdames.org,,,,47.349262,6.361718,Baume-les-Dames,Baume-les-Dames,Baume-les-Dames,25110
Agence postale de Villersexel,Place du général de Gaulle,70110,Villersexel,70561,Voujeaucourt,CC du Pays de Villersexel,Place du général de Gaulle 70110 Villersexel,entreprise,,,03 84 20 39 40,,,,,47.550792,6.432014,Place General de Gaulle,Place General de Gaulle 70110 Villersexel,Villersexel,70110
ESAT Villersexel,90 rue de la croix Marmin,70110,Villersexel,70561,Villersexel,CC du Pays de Villersexel,90 rue de la croix Marmin 70110 Villersexel,association,,,03 84 63 00 56,esat@ahs-fc.fr,https://www.ahs-fc.fr/etablissement.php?idM=1&idE=17,,,47.549023,6.432082,90 Rue de la Croix Marmin,90 Rue de la Croix Marmin 70110 Villersexel,Villersexel,70110
Club amitié rencontres,201 rue du 13 septembre 1944,70110,Villersexel,70561,Villersexel,CC du Pays de Villersexel,201 rue du 13 septembre 1944 70110 Villersexel,association,,,03 84 20 31 66,,,,,47.549367,6.434952,201 Rue du 13 Septembre 1944,201 Rue du 13 Septembre 1944 70110 Villersexel,Villersexel,70110
Club joie de vivre,7 rue de la mairie,70110,Gouhenans,70271,Gouhenans,CC du Pays de Villersexel,7 rue de la mairie 70110 Gouhenans,association,,,03 84 20 11 08,m25clement@yahoo.fr,http://club.gouhenans.free.fr/,,,47.606074,6.467569,7 Rue de la Mairie,7 Rue de la Mairie 70110 Gouhenans,Gouhenans,70110
ASCE section fil d'argent,,70110,Esprels,70219,Esprels,CC du Pays de Villersexel,70110 Esprels,association,,,06 74 69 21 04,,https://www.esprels.fr/le-fil-d-argent-club-des-aines-a-esprels--1311627365.html,,,47.536617,6.366427,Esprels,Esprels,Esprels,70110
CLIC,Place de la mairie,70110,Marast,70332,Marast,CC du Pays de Villersexel,Place de la mairie 70110 Marast,association,,,03 84 20 39 52,mairie.moimay@orange.fr,,,,47.535498,6.373741,Place de la Mairie,Place de la Mairie 70110 Esprels,Esprels,70110
Bibliothèque de Villersexel,12 chemin espargelles,70110,Saint-Sulpice,70110,Saint-Sulpice,CC du Pays de Villersexel,12 chemin espargelles 70110 Saint-Sulpice,biblioth_que,,,,,,,,47.564445,6.44656,12 Chemin des Espargelles,12 Chemin des Espargelles 70110 Saint-Sulpice,Saint-Sulpice,70110
Médiathèque d'Esprels,2 Rue du Breuil,70110,Esprels,70219,Esprels,CC du Pays de Villersexel,2 Rue du Breuil 70110 Esprels,biblioth_que,,,03 84 30 48 34,,mediatheque.esprels@orange.fr,,,47.517799,6.54212,2 Rue du Breuil,2 Rue du Breuil 70110 Courchaton,Courchaton,70110
Bibliothèque de Senargent,3 place de l'église,70110,Senargent-Mignafans,70487,Senargent-Mignafans,CC du Pays de Villersexel,3 place de l'église 70110 Senargent-Mignafans,biblioth_que,,,,,,,,47.566333,6.52639,3 Place de l’Eglise,3 Place de l’Eglise 70110 Senargent-Mignafans,Senargent-Mignafans,70110
Secours catholique,871 rue de l'hermitage,70110,Villersexel,70561,Villersexel,CC du Pays de Villersexel,871 rue de l'hermitage 70110 Villersexel,association,,,,,,,,47.562256,6.452598,871 Rue de l'Hermitage,871 Rue de l'Hermitage 70110 Villersexel,Villersexel,70110
Restos du cœur,193 rue de l'armée de l'Est,70110,Villersexel,70561,Villersexel,CC du Pays de Villersexel,193 rue de l'armée de l'Est 70110 Villersexel,association,,,03 84 20 50 63,,,,,47.546429,6.428524,Rue de l'Armée de l'Est,Rue de l'Armée de l'Est 70110 Villersexel,Villersexel,70110
club d'entreprises du Pays de Villersexel,24 grande rue,70110,Saint-Sulpice,70110,Saint-Sulpice,CC du Pays de Villersexel,24 grande rue 70110 Saint-Sulpice,association,,,,,clubentreprisepv@gmail.com,,,47.564511,6.450078,24 Grande Rue,24 Grande Rue 70110 Saint-Sulpice,Saint-Sulpice,70110
ADMR,130 rue de Schonau,70110,Villersexel,70561,Villersexel,CC du Pays de Villersexel,130 rue de Schonau 70110 Villersexel,association,,,03 84 20 33 44,,msvillersexel@fede70.admr.org,,,47.550236,6.434171,130 Rue de Schönau,130 Rue de Schönau 70110 Villersexel,Villersexel,70110
Mission locale Hericourt-Villersexel,11 rue de la tuilerie,70400,Hericourt,70285,Hericourt,CC du Pays de Villersexel,11 rue de la tuilerie 70400 Hericourt,collectivite,,,03 84 46 58 03,,catherine.locatelli@milobfc.fr,,,47.572184,6.756945,11 Rue de la Tuilerie,11 Rue de la Tuilerie 70400 Héricourt,Héricourt,70400
Association des parents d'élèves du college,15 rue des vignes,70110,Villersexel,70561,Villersexel,CC du Pays de Villersexel,15 rue des vignes 70110 Villersexel,association,,,,,,,,47.554249,6.443236,15 Rue des Vignes,15 Rue des Vignes 70110 Villersexel,Villersexel,70110
Association culturelle et sportive du primaire,231 rue du 13 septembre 1944,70110,Villersexel,70561,Villersexel,CC du Pays de Villersexel,231 rue du 13 septembre 1944 70110 Villersexel,association,,,03 84 20 33 39,,,,,47.548695,6.434682,231 Rue du 13 Septembre 1944,231 Rue du 13 Septembre 1944 70110 Villersexel,Villersexel,70110
MAS Guy de Moustier,158 rue de Martiney,70110,Villersexel,70561,Villersexel,CC du Pays de Villersexel,158 rue de Martiney 70110 Villersexel,,,,03 84 63 48 00,,guydemoustier@ahs-fc.fr,,,47.545403,6.428681,158 Rue de Martiney,158 Rue de Martiney 70110 Villersexel,Villersexel,70110
Ehpad Griboulard,441 rue du 13 septembre 1944,70110,Villersexel,70561,Villersexel,CC du Pays de Villersexel,441 rue du 13 septembre 1944 70110 Villersexel,,,,03 84 20 53 82,,,,,47.547218,6.432218,441 Rue du 13 Septembre 1944,441 Rue du 13 Septembre 1944 70110 Villersexel,Villersexel,70110
Fondation de Grammont (EHPAD),205 Rue de l'Hopital,70110,Villersexel,70561,Villersexel,CC du Pays de Villersexel,205 Rue de l'Hopital 70110 Villersexel,,,,03 84 20 50 98,,,,,47.552761,6.437046,205 Rue de l'Hôpital,205 Rue de l'Hôpital 70110 Villersexel,Villersexel,70110
EPN centre-ville Médiathèque Pierre Bayle,27  Rue de la république,25050,Besançon,25056,Besançon,CA du Grand Besancon,27  Rue de la république 25000 Besançon,espnum,1,Sallel EPN + postes en libre accés dans la bibliothèque,03 81 87 84 27,epn@besancon.fr,https://epn.besancon.fr/,accomp_demarches-ateliers_formations-tierslieux_cowork-,adapt_handicap-acces_libre-itinerance-acces_payant-,47.240218,6.027249,27 Rue de la République,27 Rue de la République 25000 Besançon,Besançon,25000
EPN Montrapon Centre Pierre deCoubertin,1  Place de Coubertin,25000,Besançon,25056,Besançon,CA du Grand Besancon,1  Place de Coubertin 25000 Besançon,espnum,1,Dans le centre Pierre de Coubertin,03 81 87 84 27,epn@besancon.fr,https://epn.besancon.fr,accomp_demarches-ateliers_formations-tierslieux_cowork-,adapt_handicap-acces_libre-itinerance-acces_payant-,47.247253,6.000357,1 Place Pierre de Coubertin,1 Place Pierre de Coubertin 25000 Besançon,Besançon,25000
EPN Planoise Centre Nelson Mandela,13  Avenue de Ile de France,25000,Besançon,25056,Besançon,CA du Grand Besancon,13  Avenue de Ile de France 25000 Besançon,espnum,1,Dans le centre Mandela,03 81 87 84 27,epn@besancon.fr,https://epn.besancon.fr,accomp_demarches-ateliers_formations-tierslieux_cowork-,adapt_handicap-acces_libre-itinerance-acces_payant-,47.221329,5.967441,13 Avenue de l'île de France,13 Avenue de l'île de France 25000 Besançon,Besançon,25000
Maison de quartier Grette - Butte,31 bis  Avenue Général Brulard,25000,Besançon,25056,Besançon,CA du Grand Besancon,31 bis  Avenue Général Brulard 25000 Besançon,collectivite,0,,03 81 87 82 40,grette.mdq@besancon.fr,https://besancon.fr,accomp_demarches-ateliers_formations-tierslieux_cowork-,adapt_handicap-acces_libre-itinerance-acces_payant-,47.227771,6.005491,31b Rue Général Brulard,31b Rue Général Brulard 25000 Besançon,Besançon,25000
Maison de quartier Bains-Douches,1  Rue de l'école,25000,Besançon,25056,Besançon,CA du Grand Besancon,1  Rue de l'école 25000 Besançon,collectivite,0,,03 81 41 57 58,,https://besancon.fr,accomp_demarches-ateliers_formations-tierslieux_cowork-,adapt_handicap-acces_libre-itinerance-acces_payant-,47.240319,6.01915,1 Rue de l'école,1 Rue de l'école 25000 Besançon,Besançon,25000
MJC Clairs-Soleils,67 E  Rure de Chalzeule,25000,Besançon,25056,Besançon,CA du Grand Besancon,67 E  Rure de Chalzeule 25000 Besançon,association,0,,03 81 41 55 66,centresocial.clairsoleils@wabadoo.fr,http://www.mjc-besancon.fr/,accomp_demarches-ateliers_formations-tierslieux_cowork-,adapt_handicap-acces_libre-itinerance-acces_payant-,47.231832,6.02383,Avenue de la gare d'eau,Avenue de la gare d'eau 25000 Besançon,Besançon,25000
FABLAB des Fabriques,10  Rue Picasso,25000,Besançon,25056,Besançon,CA du Grand Besancon,10  Rue Picasso 25000 Besançon,espnum,1,,03 81 87 85 80,fablab@grandbesancon.fr,https://fablab.grandbesancon.fr,accomp_demarches-ateliers_formations-tierslieux_cowork-,adapt_handicap-acces_libre-itinerance-acces_payant-,47.219005,5.973584,Rue Pablo Picasso,Rue Pablo Picasso 25000 Besançon,Besançon,25000
Maison France Services,10  rue Picasso,25000,Besançon,25056,Besançon,CA du Grand Besancon,10  rue Picasso 25000 Besançon,msap_mfs,,,,,https://www.grandbesancon.fr/demarche-administrative/la-maison-de-services-au-public-msap/,,,47.219005,5.973584,Rue Pablo Picasso,Rue Pablo Picasso 25000 Besançon,Besançon,25000
Résidence autonomie les Hortensias,15  avenue de Bourgogne,25000,Besançon,25056,Besançon,CA du Grand Besancon,15  avenue de Bourgogne 25000 Besançon,collectivite,,,,,,,,47.221857,5.973518,15 Avenue de Bourgogne,15 Avenue de Bourgogne 25000 Besançon,Besançon,25000
Résidence autonomie Le Marulaz,20  rue de Vignier,25000,Besançon,25056,Besançon,CA du Grand Besancon,20  rue de Vignier 25000 Besançon,collectivite,,,,,,,,47.240068,6.017311,20 Rue de Vignier,20 Rue de Vignier 25000 Besançon,Besançon,25000
Résidence autonomie les Cèdres,2  Rue Kepler,25000,Besançon,25056,Besançon,CA du Grand Besancon,2  Rue Kepler 25000 Besançon,collectivite,,,,,,,,47.248464,5.995922,2 Rue Kepler,2 Rue Kepler 25000 Besançon,Besançon,25000
Résidence autonomie les Lilas,7  Rue des Lilas,25000,Besançon,25056,Besançon,CA du Grand Besancon,7  Rue des Lilas 25000 Besançon,collectivite,,,,,,,,47.259856,6.043619,7 Rue des Lilas,7 Rue des Lilas 25000 Besançon,Besançon,25000
CHRS AGORA espace résidentiel,2  rue Pierre Mesnage,25000,Besançon,25056,Besançon,CA du Grand Besancon,2  rue Pierre Mesnage 25000 Besançon,collectivite,,,,,,,,47.249023,5.996778,2 Rue Pierre Mesnage,2 Rue Pierre Mesnage 25000 Besançon,Besançon,25000
CHRS Les Géraniums,Rue Champrond,25000,Besançon,25056,Besançon,CA du Grand Besancon,Rue Champrond 25000 Besançon,collectivite,,,,,,,,47.241879,6.021413,Rue Champrond,Rue Champrond 25000 Besançon,Besançon,25000
Bibliothèque municipal Louis Pergaud de Maîche,Chemin de la Canissière,25120,Maîche,25356,Maîche,CC du Pays de Maîche,Chemin de la Canissière  25120 MAÎCHE,biblioth_que,,Horaires : Mardi 13h30 – 18h30  Mercredi : 9h00 – 12h00 et 13h30 – 18h30  Vendredi : 13h30 – 18h30  Samedi : 9h00 – 12h00 – Pour l’instant  non accessible aux personnes handicapées  1 ordinateur en libre accès (pas d'assistance),03 81 64 18 61,bibliotheque@mairie-maiche.fr,https://maiche.bibenligne.fr,,,47.250961,6.795949,Chemin de la Canissiere,Chemin de la Canissiere 25120 Maîche,Maîche,25120
Association Multimédia 777,Salle Bernard Clavel Château du Désert  7 chemin de la Canissière,25120,Maîche,25356,Maîche,CC du Pays de Maîche,Salle Bernard Clavel Château du Désert  7 chemin de la Canissière 25120 MAÎCHE,association,,Objet : cours d’informatique délivrés en salle Pergaud située au 1er étage du Château du Désert (pour l’instant non accessible aux personnes handicapées). - Coût : adhésion annuelle de 70 €uros pour accès à cours informatiques illimités en fonction des formations prévues. Les formations se créent selon la demande et le niveau des adhérents,06 20 36 66 91,contact@multimedia777.fr,http://multimedia777.fr/,,,47.250961,6.795949,Chemin de la Canissiere,Chemin de la Canissiere 25120 Maîche,Maîche,25120
Espace France Service du Pays de Maiche,24 rue Montalembert,25120,Maîche,25356,Maîche,CC du Pays de Maîche,24 rue Montalembert 25120 MAICHE,collectivite,1,Accès internet en libre service  imprimante  scanner  photocopie  Accès aux sites des opérateurs partenaires (CAF  CPAM  MSA  DDFIP  Pôle Emploi…)   2 personnes à disposition du public pour un accompagnement à la réalisation des démarches administratives et quotidiennes,03 81 64 17 06,franceservices@ccpm-maiche.com,,accomp_demarches-ateliers_formations-,adapt_handicap-acces_libre-itinerance-acces_payant-,47.2522,6.803809,24 Rue Montalembert,24 Rue Montalembert 25120 Maîche,Maîche,25120
BIBLIOTHEQUE MUNICIPALE LOUIS PERGAUD,Chemin de la Canissière,25120,Maîche,25356,Maîche,CC du Pays de Maîche,Chemin de la Canissière 25120 MAICHE,biblioth_que,1,Horaires : 13h30 - 18h30  1 ordinateur en libre accès,03 81 64 18 61,bibliotheque@mairie-maiche.fr,https://maiche.bibenligne.fr,accomp_demarches-ateliers_formations-,adapt_handicap-acces_libre-itinerance-acces_payant-,47.250961,6.795949,Chemin de la Canissiere,Chemin de la Canissiere 25120 Maîche,Maîche,25120
Médiathèque intercommunale Frasne-drugeon,3 rue de la gare,25560,Frasne,25259,Frasne,CC du Plateau de Frasne et du Val de Drugeon (CFD),3 rue de la gare  25560 Frasne,biblioth_que,1,1,03 81 38 32 93,mediatheque@frasnedrugeon-cfd.fr,www.frasnedrugeon-cfd.fr,accomp_demarches-ateliers_formations-,adapt_handicap-acces_libre-acces_payant-,46.856953,6.161394,3 Rue de la Gare,3 Rue de la Gare 25560 Frasne,Frasne,25560
CCAS Frasne,2 rue de la gare,25560,Frasne,25259,Frasne,CC du Plateau de Frasne et du Val de Drugeon (CFD),2 rue de la gare 25560 Frasne,ccas,,,03 81 49 83 17,mairie@frasne.fr,http://www.frasne.fr/actions_sociales.aspx,ateliers_formations-,acces_payant-,46.85724,6.159942,2 Rue de la Gare,2 Rue de la Gare 25560 Frasne,Frasne,25560
l'arÊTE,109 rue de Belfort,25000,Besançon,25056,Besançon,CA du Grand Besancon,109 rue de Belfort  Besançon,association,,,,,http://lartdetretousensemble.org/,,,47.251723,6.035279,109 Rue de Belfort,109 Rue de Belfort 25000 Besançon,Besançon,25000
ASSOCIATION COMPLI'CITE,6 Grande Rue,25440,COURCELLES LES QUINGEY,25171,Courcelles,CC Loue-Lison,6 Grande Rue 25440 COURCELLES LES QUINGEY,association,,,06 33 33 84 47,contact@association-complicite.com,https://association-complicite.com/,,,47.094863,5.954917,Route de Quingey,Route de Quingey 25440 Courcelles,Courcelles,25440
ASSOCIATION GESTION ACTIONS SOCIO-CULTURELLES DE BAVANS,41 Grande rue,25050,Bavans,25048,Bavans,CA Pays de Montbéliard Agglomération,41 Grande rue  Bavans,association,,,,,,,,47.480477,6.736854,41 Grande Rue,41 Grande Rue 25550 Bavans,Bavans,25550
ASSOCIATION SAINT-VIT INFORMATIQUE,103 rue des Granges,25000,BESANCON,25056,Besançon,CA du Grand Besancon,103 rue des Granges 25000 BESANCON,association,,,,,,,,47.23657,6.028724,103 Rue des Granges,103 Rue des Granges 25000 Besançon,Besançon,25000
LES FRANCAS DU DOUBS,21 rue de l’étuve,25200,Montbéliard,25388,Montbéliard,CA Pays de Montbéliard Agglomération,21 rue de l’étuve  Montbéliard,association,,,,,https://www.francas-doubs.fr/,,,47.511722,6.799014,21 Rue de l'Etuve,21 Rue de l'Etuve 25200 Montbéliard,Montbéliard,25200
ASSOCIATION FRIP'VIE,Chem. de la Pierre Martin,25200,Grand-Charmont,25284,Grand-Charmont,CA Pays de Montbéliard Agglomération,Chem. de la Pierre Martin  Grand-Charmont,association,,,03 81 32 31 14,,https://fripvie.fr/,,,48.182377,3.084461,Sur le Chem de la Chardonn,Sur le Chem de la Chardonn 89150 Saint-Valérien,Saint-Valérien,89150
ENVIE 2E,Rte de Beaulieu,25700,Valentigney,25580,Valentigney,CA Pays de Montbéliard Agglomération,Rte de Beaulieu  Valentigney,association,,,03 81 96 16 59,,https://www.envie2e-recyclage.fr/,,,47.45015,6.838887,Route de Beaulieu,Route de Beaulieu 25700 Valentigney,Valentigney,25700
UNION DEPARTEMENTALE DES ASSOCIATIONS FAMILIALES,12 rue de la famille,25000,Besançon,25056,Besançon,CA Pays de Montbéliard Agglomération,12 rue de la famille  Besançon,association,,,03 81 80 21 74,udafdoubs@udaf25.fr,https://www.udaf25.fr/,,,47.257042,6.033021,12 Rue de la Famille,12 Rue de la Famille 25000 Besançon,Besançon,25000
INFOTUTO LES TUTEURS INFORMATIQUES,34 grande rue,25520,Goux-les-Usiers,25282,Goux-les-Usiers,CC Altitude 800,34 grande rue  Goux-les-Usiers,association,,,,,https://www.infotuto.org/,,,46.973234,6.276257,34 Grande Rue,34 Grande Rue 25520 Goux-les-Usiers,Goux-les-Usiers,25520
CENTRE SOCIAL D'AUDINCOURT,Rue Aimé Césaire,25400,Audincourt,25031,Audincourt,CA du Grand Besancon,Rue Aimé Césaire  Audincourt,collectivite,,,03 81 35 03 64,centre.social.audincourt@gmail.com,https://www.centresocialescapade.fr/,,,47.484579,6.840106,Rue Aime Cesaire,Rue Aime Cesaire 25400 Audincourt,Audincourt,25400
LIGUE DE L'ENSEIGNEMENT - FEDERATION DEPARTEMENTALE DU DOUBS,14 rue Violet,25500,Besançon,25056,Besançon,CA du Grand Besancon,14 rue Violet  Besançon,association,,,,,https://www.laliguebfc.org/,,,47.258609,6.020591,14 Rue Violet,14 Rue Violet 25000 Besançon,Besançon,25000
HARMONIE MUTUELLE,22 place de la révolution,25000,Besançon,25056,Besançon,CA du Grand Besancon,22 place de la révolution 25000 BESANCON,entreprise,,,,,https://agences.harmonie-mutuelle.fr/agence-assurance/besancon/besancon-22-place-revolution,,,47.239595,6.023079,22 Place de la Révolution,22 Place de la Révolution 25000 Besançon,Besançon,25000
IDEIS – Institut de l'entreprise et de l'innovation sociale ( Mission Locale et MDE),2 avenue des alliés,25200,MONTBELIARD,25388,Montbéliard,CA Pays de Montbéliard Agglomération,2 avenue des alliés 25200 MONTBELIARD,collectivite,,,,,https://www.ideis-asso.fr/,,,47.510877,6.800633,2 Avenue des Alliés,2 Avenue des Alliés 25200 Montbéliard,Montbéliard,25200
CROIX ROUGE,19 rue Rivotte,25000,Besançon,25056,Besançon,CA du Grand Besancon,19 rue Rivotte 25000 BESANCON,association,,,03 81 81 21 63,,https://www.croix-rouge.fr/Annuaire/UNITE-LOCALE-DE-BESANCON10,,,47.234911,6.032706,Rue Rivotte,Rue Rivotte 25000 Besançon,Besançon,25000
CENTRE COMMUNAL D’ACTION SOCIALE,11 rue Maurice Ravel,25200,MONTBELIARD,25388,Montbéliard,CA Pays de Montbéliard Agglomération,11 rue Maurice Ravel 25200 MONTBELIARD,collectivite,,,,,,,,47.497154,6.799938,11 Rue Maurice Ravel,11 Rue Maurice Ravel 25200 Montbéliard,Montbéliard,25200
France services Valentigney,14bis Rue Gustave Courbet,25700,Valentigney,25580,Valentigney,CA Pays de Montbéliard Agglomération,14bis Rue Gustave Courbet 25700 Valentigney,msap_mfs,Lundi : 09:00 - 12:00 / 13:30 - 17:30  Mardi : 13:30 - 17:30  Mercredi : 09:00 - 12:00  Jeudi : 13:30 - 17:30  Vendredi: 09:00 - 12:00 / 13:30 - 17:30,"Immatriculationde véhicules, RSA, impôt, permis de conduire, accès aux services en ligne... Vous avez besoin daide pour vos démarches administratives ? Quel que soit lendroit où vous vivez, en ville ou à la campagne, France services est un guichet unique qui donne accès dans un seul et même lieu aux principaux organismesde services publics : le ministère de l'Intérieur, le ministère de la Justice, les Finances publiques, Pôle emploi, l'Assuranceretraite, l'Assurance maladie, la CAF, la MSA et la Poste",03 81 36 12 81,france.services@csvalentigney.org,null,accomp_demarches-ateliers_formations,acces_libre,47.478234,6.828196,14bis Rue Gustave Courbet,14bis Rue Gustave Courbet 25700 Valentigney,Valentigney,25 700
INFORMA'TRIP,"Pôle Ressource Jeune, Place Zarautz 25 300 Pontarlier",25300,Pontarlier,25642,Pontarlier,CC du Grand Pontarlier,"Pôle Ressource Jeune, Place Zarautz 25 300 Pontarlier",association,Les mercredi de 15h à 19h,"Informa'Trip Solidarité a pour objectif de simplifier l’accès à du matériel informatique aux personnes dans le besoin. Notre démarche est de créer un réseau de récupération de matériel informatique afin de le reconditionner pour en faire profiter gratuitement des structures scolaires, des associations ou des personnes justifiant de ce besoin, en France et à l'étranger.",null,contact@informatrip.fr,http://www.informatrip.fr,null,null,46.911934,6.351813,"Pôle Ressource Jeune, Place Zarautz","Pôle Ressource Jeune, Place Zarautz 25 300 Pontarlier",Pontarlier,25300
Recyclerie Re Bon,"6 rue du stade,  25120 Maîche",25120,Maîche,25356,Maîche,CC du Pays de Maîche,"6 rue du stade,  25120 Maîche",association,null,"Un lieu pour collecter, réparer, revendre des objets de SECONDE MAIN, favoriser l'insertion professionnelle",03 63 17 64 05,contact@recyclerie-maiche.org,https://www.recyclerie-maiche.org/,null,null,47.246725,6.782824,6 rue du stade,"6 rue du stade,  25120 Maîche",Maîche,25120
CRIF FORMATION ET CONSEIL,"4, rue des Granges Besançon",25000,Besançon,25056,Besançon,CA du Grand Besancon,"4, rue des Granges Besançon",association,null,"Nous formons aux usages du numérique, à la bureautique et à la prise en main des outils digitaux permettant aux personnes de s'identifier sur un service en ligne par l'intermédiaire d'un compte existant (France connect pour accéder à son espace Ameli, Impôts, ...).",0381819380,crif@crif-formation.com,https://crif-formation.com/,ateliers_formations,acces_payant-adapt_handicap,47.239598,6.023547,"4, rue des Granges","4, rue des Granges  25000 Besançon",Besançon,25000
